id,Unnamed: 1,_id,__v,latitude,longitude,municipality_city,province,region,barangay,house_building_number,purok_block_lot,street_name,zip_code,createdAt,updatedAt
1.0,,,,,,,,,,,,,,,
,,67f3652456b1e991bd6b0ddd,0.0,18.065131,120.571794,Batac,Ilocos Norte,Region I,Barangay 42,,,,,,
,,67f3652456b1e991bd6b0dde,0.0,18.160278,120.600179,San Nicolas,Ilocos Norte,Region I,Barangay 16,,,,,,
,,67f3652456b1e991bd6b0ddf,0.0,18.169117,120.594458,San Nicolas,Ilocos Norte,Region I,Barangay 14,,,,,,
,,67f3652456b1e991bd6b0de0,0.0,18.064424,120.521235,Paoay,Ilocos Norte,Region I,Barangay 34,,,,,,
,,67f3652456b1e991bd6b0de1,0.0,18.023555,120.556586,Bangui,Ilocos Norte,Region I,Barangay 24,,,,,,
,,67f3652456b1e991bd6b0de2,0.0,18.056132,120.526427,Paoay,Ilocos Norte,Region I,Barangay 8,,,,,,
,,67f3652456b1e991bd6b0de3,0.0,18.060077,120.521345,Paoay,Ilocos Norte,Region I,Barangay 44,,,,,,
,,67f3652456b1e991bd6b0de4,0.0,18.062969,120.566729,Batac,Ilocos Norte,Region I,Barangay 10,,,,,,
,,67f3652456b1e991bd6b0de5,0.0,18.069186,120.528191,Paoay,Ilocos Norte,Region I,Barangay 33,,,,,,
,,67f3652456b1e991bd6b0de6,0.0,18.151714,120.598244,San Nicolas,Ilocos Norte,Region I,Barangay 18,,,,,,
,,67f3652456b1e991bd6b0de7,0.0,18.064929,120.555844,Batac,Ilocos Norte,Region I,Barangay 49,,,,,,
,,67f3652456b1e991bd6b0de8,0.0,18.051984,120.531199,Paoay,Ilocos Norte,Region I,Barangay 50,,,,,,
,,67f3652456b1e991bd6b0de9,0.0,18.201947,120.592815,Laoag,Ilocos Norte,Region I,Barangay 48,,,,,,
,,67f3652456b1e991bd6b0dea,0.0,18.0922,120.714048,Dingras,Ilocos Norte,Region I,Barangay 32,,,,,,
,,67f3652456b1e991bd6b0deb,0.0,18.152612,120.589282,San Nicolas,Ilocos Norte,Region I,Barangay 39,,,,,,
,,67f3652456b1e991bd6b0dec,0.0,18.100187,120.722681,Dingras,Ilocos Norte,Region I,Barangay 27,,,,,,
,,67f3652456b1e991bd6b0ded,0.0,18.20495,120.588191,Laoag,Ilocos Norte,Region I,Barangay 31,,,,,,
,,67f3652456b1e991bd6b0dee,0.0,18.096561,120.719343,Dingras,Ilocos Norte,Region I,Barangay 41,,,,,,
,,67f3652456b1e991bd6b0def,0.0,18.102501,120.707093,Dingras,Ilocos Norte,Region I,Barangay 17,,,,,,
,,67f3652456b1e991bd6b0df0,0.0,18.069203,120.524511,Paoay,Ilocos Norte,Region I,Barangay 32,,,,,,
,,67f3652456b1e991bd6b0df1,0.0,18.057506,120.537142,Paoay,Ilocos Norte,Region I,Barangay 31,,,,,,
,,67f3652456b1e991bd6b0df2,0.0,18.063706,120.569411,Batac,Ilocos Norte,Region I,Barangay 32,,,,,,
,,67f3652456b1e991bd6b0df3,0.0,18.049919,120.571137,Batac,Ilocos Norte,Region I,Barangay 49,,,,,,
,,67f3652456b1e991bd6b0df4,0.0,18.20779,120.586419,Laoag,Ilocos Norte,Region I,Barangay 25,,,,,,
,,67f3652456b1e991bd6b0df5,0.0,18.166501,120.588472,San Nicolas,Ilocos Norte,Region I,Barangay 31,,,,,,
,,67f3652456b1e991bd6b0df6,0.0,18.191584,120.594515,Laoag,Ilocos Norte,Region I,Barangay 6,,,,,,
,,67f3652456b1e991bd6b0df7,0.0,18.051331,120.564605,Batac,Ilocos Norte,Region I,Barangay 26,,,,,,
,,67f3652456b1e991bd6b0df8,0.0,18.061639,120.528492,Paoay,Ilocos Norte,Region I,Barangay 2,,,,,,
,,67f3652456b1e991bd6b0df9,0.0,18.096625,120.722073,Dingras,Ilocos Norte,Region I,Barangay 50,,,,,,
,,67f3652456b1e991bd6b0dfa,0.0,18.097104,120.70383,Dingras,Ilocos Norte,Region I,Barangay 42,,,,,,
,,67f3652456b1e991bd6b0dfb,0.0,18.063794,120.523912,Paoay,Ilocos Norte,Region I,Barangay 47,,,,,,
,,67f3652456b1e991bd6b0dfc,0.0,18.098656,120.712554,Dingras,Ilocos Norte,Region I,Barangay 31,,,,,,
,,67f3652456b1e991bd6b0dfd,0.0,18.104625,120.709329,Dingras,Ilocos Norte,Region I,Barangay 40,,,,,,
,,67f3652456b1e991bd6b0dfe,0.0,18.062215,120.560041,Batac,Ilocos Norte,Region I,Barangay 20,,,,,,
,,67f3652456b1e991bd6b0dff,0.0,18.063296,120.528219,Paoay,Ilocos Norte,Region I,Barangay 23,,,,,,
,,67f3652456b1e991bd6b0e00,0.0,18.107681,120.71602,Dingras,Ilocos Norte,Region I,Barangay 7,,,,,,
,,67f3652456b1e991bd6b0e01,0.0,18.062924,120.569069,Batac,Ilocos Norte,Region I,Barangay 45,,,,,,
,,67f3652456b1e991bd6b0e02,0.0,18.046518,120.572074,Batac,Ilocos Norte,Region I,Barangay 40,,,,,,
,,67f3652456b1e991bd6b0e03,0.0,18.099511,120.719711,Dingras,Ilocos Norte,Region I,Barangay 40,,,,,,
,,67f3652456b1e991bd6b0e04,0.0,18.05484,120.536768,Paoay,Ilocos Norte,Region I,Barangay 24,,,,,,
,,67f3652456b1e991bd6b0e05,0.0,18.076891,120.727089,Bangui,Ilocos Norte,Region I,Barangay 13,,,,,,
,,67f3652456b1e991bd6b0e06,0.0,18.155711,120.601338,San Nicolas,Ilocos Norte,Region I,Barangay 20,,,,,,
,,67f3652456b1e991bd6b0e07,0.0,18.09238,120.717054,Bacarra,Ilocos Norte,Region I,Barangay 35,,,,,,
,,67f3652456b1e991bd6b0e08,0.0,18.053466,120.529734,Paoay,Ilocos Norte,Region I,Barangay 29,,,,,,
,,67f3652456b1e991bd6b0e09,0.0,18.099681,120.724442,Banna,Ilocos Norte,Region I,Barangay 12,,,,,,
,,67f3652456b1e991bd6b0e0a,0.0,18.088995,120.722908,Dingras,Ilocos Norte,Region I,Barangay 30,,,,,,
,,67f3652456b1e991bd6b0e0b,0.0,18.201707,120.59211,Laoag,Ilocos Norte,Region I,Barangay 46,,,,,,
,,67f3652456b1e991bd6b0e0c,0.0,18.090252,120.705261,Dingras,Ilocos Norte,Region I,Barangay 15,,,,,,
,,67f3652456b1e991bd6b0e0d,0.0,18.101012,120.709307,Dingras,Ilocos Norte,Region I,Barangay 6,,,,,,
,,67f3652456b1e991bd6b0e0e,0.0,18.057728,120.534608,Paoay,Ilocos Norte,Region I,Barangay 17,,,,,,
,,67f3652456b1e991bd6b0e0f,0.0,18.156447,120.603945,San Nicolas,Ilocos Norte,Region I,Barangay 29,,,,,,
,,67f3652456b1e991bd6b0e10,0.0,18.202008,120.598952,Laoag,Ilocos Norte,Region I,Barangay 31,,,,,,
,,67f3652456b1e991bd6b0e11,0.0,18.052091,120.535138,Paoay,Ilocos Norte,Region I,Barangay 29,,,,,,
,,67f3652456b1e991bd6b0e12,0.0,18.194752,120.601716,Laoag,Ilocos Norte,Region I,Barangay 21,,,,,,
,,67f3652456b1e991bd6b0e13,0.0,18.167549,120.588488,San Nicolas,Ilocos Norte,Region I,Barangay 12,,,,,,
,,67f3652456b1e991bd6b0e14,0.0,18.19036,120.600122,Laoag,Ilocos Norte,Region I,Barangay 3,,,,,,
,,67f3652456b1e991bd6b0e15,0.0,18.102378,120.711428,Dingras,Ilocos Norte,Region I,Barangay 25,,,,,,
,,67f3652456b1e991bd6b0e16,0.0,18.07036,120.521082,Paoay,Ilocos Norte,Region I,Barangay 13,,,,,,
,,67f3652456b1e991bd6b0e17,0.0,18.096375,120.71653,Dingras,Ilocos Norte,Region I,Barangay 8,,,,,,
,,67f3652456b1e991bd6b0e18,0.0,18.050713,120.559212,Batac,Ilocos Norte,Region I,Barangay 47,,,,,,
,,67f3652456b1e991bd6b0e19,0.0,18.064924,120.572708,Batac,Ilocos Norte,Region I,Barangay 17,,,,,,
,,67f3652456b1e991bd6b0e1a,0.0,18.102573,120.703689,Dingras,Ilocos Norte,Region I,Barangay 30,,,,,,
,,67f3652456b1e991bd6b0e1b,0.0,18.069446,120.522142,Paoay,Ilocos Norte,Region I,Barangay 6,,,,,,
,,67f3652456b1e991bd6b0e1c,0.0,18.15375,120.598784,San Nicolas,Ilocos Norte,Region I,Barangay 47,,,,,,
,,67f3652456b1e991bd6b0e1d,0.0,18.066113,120.519999,Paoay,Ilocos Norte,Region I,Barangay 26,,,,,,
,,67f3652456b1e991bd6b0e1e,0.0,18.069791,120.527769,Paoay,Ilocos Norte,Region I,Barangay 1,,,,,,
,,67f3652456b1e991bd6b0e1f,0.0,18.117636,120.724007,Dumalneg,Ilocos Norte,Region I,Barangay 21,,,,,,
,,67f3652456b1e991bd6b0e20,0.0,18.062762,120.535916,Paoay,Ilocos Norte,Region I,Barangay 24,,,,,,
,,67f3652456b1e991bd6b0e21,0.0,18.193328,120.601789,Laoag,Ilocos Norte,Region I,Barangay 3,,,,,,
,,67f3652456b1e991bd6b0e22,0.0,18.199891,120.6024,Laoag,Ilocos Norte,Region I,Barangay 37,,,,,,
,,67f3652456b1e991bd6b0e23,0.0,18.058139,120.531986,Paoay,Ilocos Norte,Region I,Barangay 25,,,,,,
,,67f3652456b1e991bd6b0e24,0.0,18.15319,120.594189,San Nicolas,Ilocos Norte,Region I,Barangay 50,,,,,,
,,67f3652456b1e991bd6b0e25,0.0,18.197738,120.582799,Laoag,Ilocos Norte,Region I,Barangay 48,,,,,,
,,67f3652456b1e991bd6b0e26,0.0,18.157111,120.587891,San Nicolas,Ilocos Norte,Region I,Barangay 41,,,,,,
,,67f3652456b1e991bd6b0e27,0.0,18.196254,120.599472,Laoag,Ilocos Norte,Region I,Barangay 6,,,,,,
,,67f3652456b1e991bd6b0e28,0.0,18.095244,120.707672,Dingras,Ilocos Norte,Region I,Barangay 21,,,,,,
,,67f3652456b1e991bd6b0e29,0.0,18.062058,120.560125,Batac,Ilocos Norte,Region I,Barangay 38,,,,,,
,,67f3652456b1e991bd6b0e2a,0.0,18.064279,120.523026,Paoay,Ilocos Norte,Region I,Barangay 29,,,,,,
,,67f3652456b1e991bd6b0e2b,0.0,18.18807,120.583709,Laoag,Ilocos Norte,Region I,Barangay 2,,,,,,
,,67f3652456b1e991bd6b0e2c,0.0,18.058048,120.539264,Paoay,Ilocos Norte,Region I,Barangay 33,,,,,,
,,67f3652456b1e991bd6b0e2d,0.0,18.064551,120.558221,Batac,Ilocos Norte,Region I,Barangay 49,,,,,,
,,67f3652456b1e991bd6b0e2e,0.0,18.196717,120.598381,Laoag,Ilocos Norte,Region I,Barangay 7,,,,,,
,,67f3652456b1e991bd6b0e2f,0.0,18.091414,120.711842,Dingras,Ilocos Norte,Region I,Barangay 15,,,,,,
,,67f3652456b1e991bd6b0e30,0.0,18.089206,120.716475,Dingras,Ilocos Norte,Region I,Barangay 21,,,,,,
,,67f3652456b1e991bd6b0e31,0.0,18.065182,120.572061,Batac,Ilocos Norte,Region I,Barangay 13,,,,,,
,,67f3652456b1e991bd6b0e32,0.0,18.057304,120.535211,Paoay,Ilocos Norte,Region I,Barangay 26,,,,,,
,,67f3652456b1e991bd6b0e33,0.0,18.151449,120.603635,San Nicolas,Ilocos Norte,Region I,Barangay 50,,,,,,
,,67f3652456b1e991bd6b0e34,0.0,18.068373,120.589579,Piddig,Ilocos Norte,Region I,Barangay 26,,,,,,
,,67f3652456b1e991bd6b0e35,0.0,18.215152,120.544015,Badoc,Ilocos Norte,Region I,Barangay 50,,,,,,
,,67f3652456b1e991bd6b0e36,0.0,18.165152,120.59049,San Nicolas,Ilocos Norte,Region I,Barangay 23,,,,,,
,,67f3652456b1e991bd6b0e37,0.0,18.108283,120.706373,Dingras,Ilocos Norte,Region I,Barangay 20,,,,,,
,,67f3652456b1e991bd6b0e38,0.0,18.069002,120.5358,Paoay,Ilocos Norte,Region I,Barangay 28,,,,,,
,,67f3652456b1e991bd6b0e39,0.0,18.099876,120.713941,Dingras,Ilocos Norte,Region I,Barangay 21,,,,,,
,,67f3652456b1e991bd6b0e3a,0.0,18.093355,120.715409,Dingras,Ilocos Norte,Region I,Barangay 43,,,,,,
,,67f3652456b1e991bd6b0e3b,0.0,18.055793,120.562527,Batac,Ilocos Norte,Region I,Barangay 34,,,,,,
,,67f3652456b1e991bd6b0e3c,0.0,18.054769,120.527605,Paoay,Ilocos Norte,Region I,Barangay 43,,,,,,
,,67f3652456b1e991bd6b0e3d,0.0,18.156179,120.593656,San Nicolas,Ilocos Norte,Region I,Barangay 22,,,,,,
,,67f3652456b1e991bd6b0e3e,0.0,18.19645,120.590532,Laoag,Ilocos Norte,Region I,Barangay 11,,,,,,
,,67f3652456b1e991bd6b0e3f,0.0,18.153535,120.58656,San Nicolas,Ilocos Norte,Region I,Barangay 33,,,,,,
,,67f3652456b1e991bd6b0e40,0.0,18.154727,120.594047,San Nicolas,Ilocos Norte,Region I,Barangay 35,,,,,,
,,67f3652456b1e991bd6b0e41,0.0,18.203617,120.595343,Laoag,Ilocos Norte,Region I,Barangay 31,,,,,,
,,67f3652456b1e991bd6b0e42,0.0,18.194073,120.590866,Laoag,Ilocos Norte,Region I,Barangay 5,,,,,,
,,67f3652456b1e991bd6b0e43,0.0,18.190582,120.598925,Laoag,Ilocos Norte,Region I,Barangay 33,,,,,,
,,67f3652456b1e991bd6b0e44,0.0,18.103887,120.71563,Dingras,Ilocos Norte,Region I,Barangay 32,,,,,,
,,67f3652456b1e991bd6b0e45,0.0,18.206272,120.599324,Laoag,Ilocos Norte,Region I,Barangay 27,,,,,,
,,67f3652456b1e991bd6b0e46,0.0,18.168985,120.602495,San Nicolas,Ilocos Norte,Region I,Barangay 28,,,,,,
,,67f3652456b1e991bd6b0e47,0.0,18.058923,120.55696,Batac,Ilocos Norte,Region I,Barangay 41,,,,,,
,,67f3652456b1e991bd6b0e48,0.0,18.152219,120.599667,San Nicolas,Ilocos Norte,Region I,Barangay 21,,,,,,
,,67f3652456b1e991bd6b0e49,0.0,18.058821,120.532734,Paoay,Ilocos Norte,Region I,Barangay 49,,,,,,
,,67f3652456b1e991bd6b0e4a,0.0,18.187889,120.597472,Laoag,Ilocos Norte,Region I,Barangay 46,,,,,,
,,67f3652456b1e991bd6b0e4b,0.0,18.164946,120.597247,San Nicolas,Ilocos Norte,Region I,Barangay 10,,,,,,
,,67f3652456b1e991bd6b0e4c,0.0,18.054863,120.564787,Batac,Ilocos Norte,Region I,Barangay 21,,,,,,
,,67f3652456b1e991bd6b0e4d,0.0,18.046907,120.56154,Batac,Ilocos Norte,Region I,Barangay 32,,,,,,
,,67f3652456b1e991bd6b0e4e,0.0,18.052924,120.558108,Batac,Ilocos Norte,Region I,Barangay 28,,,,,,
,,67f3652456b1e991bd6b0e4f,0.0,18.160151,120.605288,San Nicolas,Ilocos Norte,Region I,Barangay 8,,,,,,
,,67f3652456b1e991bd6b0e50,0.0,18.10115,120.712126,Dingras,Ilocos Norte,Region I,Barangay 11,,,,,,
,,67f3652456b1e991bd6b0e51,0.0,18.045835,120.573467,Batac,Ilocos Norte,Region I,Barangay 50,,,,,,
,,67f3652456b1e991bd6b0e52,0.0,18.170589,120.605814,San Nicolas,Ilocos Norte,Region I,Barangay 31,,,,,,
,,67f3652456b1e991bd6b0e53,0.0,18.052104,120.718546,Burgos,Ilocos Norte,Region I,Barangay 7,,,,,,
,,67f3652456b1e991bd6b0e54,0.0,18.047632,120.561882,Batac,Ilocos Norte,Region I,Barangay 24,,,,,,
,,67f3652456b1e991bd6b0e55,0.0,18.169394,120.59013,San Nicolas,Ilocos Norte,Region I,Barangay 9,,,,,,
,,67f3652456b1e991bd6b0e56,0.0,18.052826,120.7136,Pinili,Ilocos Norte,Region I,Barangay 21,,,,,,
,,67f3652456b1e991bd6b0e57,0.0,18.200074,120.59382,Laoag,Ilocos Norte,Region I,Barangay 43,,,,,,
,,67f3652456b1e991bd6b0e58,0.0,18.052326,120.563896,Batac,Ilocos Norte,Region I,Barangay 12,,,,,,
,,67f3652456b1e991bd6b0e59,0.0,18.202401,120.598199,Laoag,Ilocos Norte,Region I,Barangay 27,,,,,,
,,67f3652456b1e991bd6b0e5a,0.0,18.201216,120.598739,Laoag,Ilocos Norte,Region I,Barangay 35,,,,,,
,,67f3652456b1e991bd6b0e5b,0.0,18.055863,120.51971,Paoay,Ilocos Norte,Region I,Barangay 42,,,,,,
,,67f3652456b1e991bd6b0e5c,0.0,18.155105,120.600794,San Nicolas,Ilocos Norte,Region I,Barangay 34,,,,,,
,,67f3652456b1e991bd6b0e5d,0.0,18.193313,120.59442,Laoag,Ilocos Norte,Region I,Barangay 31,,,,,,
,,67f3652456b1e991bd6b0e5e,0.0,18.094511,120.714811,Dingras,Ilocos Norte,Region I,Barangay 42,,,,,,
,,67f3652456b1e991bd6b0e5f,0.0,18.0934,120.713084,Dingras,Ilocos Norte,Region I,Barangay 24,,,,,,
,,67f3652456b1e991bd6b0e60,0.0,18.20461,120.587551,Laoag,Ilocos Norte,Region I,Barangay 1,,,,,,
,,67f3652456b1e991bd6b0e61,0.0,18.108241,120.716823,Dingras,Ilocos Norte,Region I,Barangay 33,,,,,,
,,67f3652456b1e991bd6b0e62,0.0,18.153629,120.601581,San Nicolas,Ilocos Norte,Region I,Barangay 26,,,,,,
,,67f3652456b1e991bd6b0e63,0.0,18.102357,120.721743,Dingras,Ilocos Norte,Region I,Barangay 23,,,,,,
,,67f3652456b1e991bd6b0e64,0.0,18.046394,120.563633,Batac,Ilocos Norte,Region I,Barangay 2,,,,,,
,,67f3652456b1e991bd6b0e65,0.0,18.068599,120.536002,Paoay,Ilocos Norte,Region I,Barangay 13,,,,,,
,,67f3652456b1e991bd6b0e66,0.0,18.082257,120.676981,Carasi,Ilocos Norte,Region I,Barangay 47,,,,,,
,,67f3652456b1e991bd6b0e67,0.0,18.045739,120.55609,Batac,Ilocos Norte,Region I,Barangay 21,,,,,,
,,67f3652456b1e991bd6b0e68,0.0,18.061217,120.564222,Batac,Ilocos Norte,Region I,Barangay 18,,,,,,
,,67f3652456b1e991bd6b0e69,0.0,18.168186,120.600774,San Nicolas,Ilocos Norte,Region I,Barangay 27,,,,,,
,,67f3652456b1e991bd6b0e6a,0.0,18.053028,120.526462,Paoay,Ilocos Norte,Region I,Barangay 11,,,,,,
,,67f3652456b1e991bd6b0e6b,0.0,18.199074,120.586658,Laoag,Ilocos Norte,Region I,Barangay 29,,,,,,
,,67f3652456b1e991bd6b0e6c,0.0,18.064463,120.557901,Batac,Ilocos Norte,Region I,Barangay 34,,,,,,
,,67f3652456b1e991bd6b0e6d,0.0,18.203626,120.589883,Laoag,Ilocos Norte,Region I,Barangay 21,,,,,,
,,67f3652456b1e991bd6b0e6e,0.0,18.058208,120.531115,Paoay,Ilocos Norte,Region I,Barangay 6,,,,,,
,,67f3652456b1e991bd6b0e6f,0.0,18.060161,120.522267,Paoay,Ilocos Norte,Region I,Barangay 26,,,,,,
,,67f3652456b1e991bd6b0e70,0.0,18.058519,120.536379,Paoay,Ilocos Norte,Region I,Barangay 25,,,,,,
,,67f3652456b1e991bd6b0e71,0.0,18.189826,120.598388,Laoag,Ilocos Norte,Region I,Barangay 33,,,,,,
,,67f3652456b1e991bd6b0e72,0.0,18.102616,120.718694,Dingras,Ilocos Norte,Region I,Barangay 21,,,,,,
,,67f3652456b1e991bd6b0e73,0.0,18.092377,120.721258,Dingras,Ilocos Norte,Region I,Barangay 19,,,,,,
,,67f3652456b1e991bd6b0e74,0.0,18.089743,120.714654,Dingras,Ilocos Norte,Region I,Barangay 30,,,,,,
,,67f3652456b1e991bd6b0e75,0.0,18.157889,120.597342,San Nicolas,Ilocos Norte,Region I,Barangay 10,,,,,,
,,67f3652456b1e991bd6b0e76,0.0,18.045153,120.688699,Nueva Era,Ilocos Norte,Region I,Barangay 18,,,,,,
,,67f3652456b1e991bd6b0e77,0.0,18.025508,120.585427,Pagudpud,Ilocos Norte,Region I,Barangay 24,,,,,,
,,67f3652456b1e991bd6b0e78,0.0,18.188699,120.597107,Laoag,Ilocos Norte,Region I,Barangay 9,,,,,,
,,67f3652456b1e991bd6b0e79,0.0,18.054951,120.520012,Paoay,Ilocos Norte,Region I,Barangay 14,,,,,,
,,67f3652456b1e991bd6b0e7a,0.0,18.19819,120.587172,Laoag,Ilocos Norte,Region I,Barangay 32,,,,,,
,,67f3652456b1e991bd6b0e7b,0.0,18.049318,120.563967,Batac,Ilocos Norte,Region I,Barangay 20,,,,,,
,,67f3652456b1e991bd6b0e7c,0.0,18.105199,120.716996,Dingras,Ilocos Norte,Region I,Barangay 38,,,,,,
,,67f3652456b1e991bd6b0e7d,0.0,18.153766,120.590616,San Nicolas,Ilocos Norte,Region I,Barangay 14,,,,,,
,,67f3652456b1e991bd6b0e7e,0.0,18.106698,120.713283,Dingras,Ilocos Norte,Region I,Barangay 19,,,,,,
,,67f3652456b1e991bd6b0e7f,0.0,18.167016,120.59462,San Nicolas,Ilocos Norte,Region I,Barangay 2,,,,,,
,,67f3652456b1e991bd6b0e80,0.0,18.062024,120.535434,Paoay,Ilocos Norte,Region I,Barangay 1,,,,,,
,,67f3652456b1e991bd6b0e81,0.0,18.052667,120.53118,Paoay,Ilocos Norte,Region I,Barangay 14,,,,,,
,,67f3652456b1e991bd6b0e82,0.0,18.025626,120.688544,Adams,Ilocos Norte,Region I,Barangay 39,,,,,,
,,67f3652456b1e991bd6b0e83,0.0,18.168072,120.604833,San Nicolas,Ilocos Norte,Region I,Barangay 31,,,,,,
,,67f3652456b1e991bd6b0e84,0.0,18.198068,120.591876,Laoag,Ilocos Norte,Region I,Barangay 15,,,,,,
,,67f3652456b1e991bd6b0e85,0.0,18.050088,120.56081,Batac,Ilocos Norte,Region I,Barangay 12,,,,,,
,,67f3652456b1e991bd6b0e86,0.0,18.196289,120.585653,Laoag,Ilocos Norte,Region I,Barangay 18,,,,,,
,,67f3652456b1e991bd6b0e87,0.0,18.167013,120.598217,San Nicolas,Ilocos Norte,Region I,Barangay 44,,,,,,
,,67f3652456b1e991bd6b0e88,0.0,18.167824,120.596771,San Nicolas,Ilocos Norte,Region I,Barangay 22,,,,,,
,,67f3652456b1e991bd6b0e89,0.0,18.170674,120.589768,San Nicolas,Ilocos Norte,Region I,Barangay 49,,,,,,
,,67f3652456b1e991bd6b0e8a,0.0,18.046138,120.566354,Batac,Ilocos Norte,Region I,Barangay 23,,,,,,
,,67f3652456b1e991bd6b0e8b,0.0,18.054276,120.53681,Paoay,Ilocos Norte,Region I,Barangay 23,,,,,,
,,67f3652456b1e991bd6b0e8c,0.0,18.158707,120.596549,San Nicolas,Ilocos Norte,Region I,Barangay 17,,,,,,
,,67f3652456b1e991bd6b0e8d,0.0,18.096935,120.719397,Dingras,Ilocos Norte,Region I,Barangay 9,,,,,,
,,67f3652456b1e991bd6b0e8e,0.0,18.046111,120.56471,Batac,Ilocos Norte,Region I,Barangay 38,,,,,,
,,67f3652456b1e991bd6b0e8f,0.0,18.201065,120.599402,Laoag,Ilocos Norte,Region I,Barangay 28,,,,,,
,,67f3652456b1e991bd6b0e90,0.0,18.053335,120.55826,Batac,Ilocos Norte,Region I,Barangay 31,,,,,,
,,67f3652456b1e991bd6b0e91,0.0,18.041527,120.521975,Bacarra,Ilocos Norte,Region I,Barangay 22,,,,,,
,,67f3652456b1e991bd6b0e92,0.0,18.067914,120.5227,Paoay,Ilocos Norte,Region I,Barangay 16,,,,,,
,,67f3652456b1e991bd6b0e93,0.0,18.055449,120.554797,Batac,Ilocos Norte,Region I,Barangay 3,,,,,,
,,67f3652456b1e991bd6b0e94,0.0,18.057838,120.526343,Paoay,Ilocos Norte,Region I,Barangay 19,,,,,,
,,67f3652456b1e991bd6b0e95,0.0,18.096232,120.706701,Dingras,Ilocos Norte,Region I,Barangay 4,,,,,,
,,67f3652456b1e991bd6b0e96,0.0,18.067232,120.530347,Paoay,Ilocos Norte,Region I,Barangay 38,,,,,,
,,67f3652456b1e991bd6b0e97,0.0,18.050377,120.556731,Batac,Ilocos Norte,Region I,Barangay 37,,,,,,
,,67f3652456b1e991bd6b0e98,0.0,18.093257,120.715731,Dingras,Ilocos Norte,Region I,Barangay 21,,,,,,
,,67f3652456b1e991bd6b0e99,0.0,18.164561,120.601098,San Nicolas,Ilocos Norte,Region I,Barangay 30,,,,,,
,,67f3652456b1e991bd6b0e9a,0.0,18.0536,120.520713,Paoay,Ilocos Norte,Region I,Barangay 1,,,,,,
,,67f3652456b1e991bd6b0e9b,0.0,18.095739,120.703713,Dingras,Ilocos Norte,Region I,Barangay 16,,,,,,
,,67f3652456b1e991bd6b0e9c,0.0,18.161002,120.596596,San Nicolas,Ilocos Norte,Region I,Barangay 47,,,,,,
,,67f3652456b1e991bd6b0e9d,0.0,18.049026,120.563611,Batac,Ilocos Norte,Region I,Barangay 40,,,,,,
,,67f3652456b1e991bd6b0e9e,0.0,18.051749,120.566334,Batac,Ilocos Norte,Region I,Barangay 43,,,,,,
,,67f3652456b1e991bd6b0e9f,0.0,18.168029,120.604782,San Nicolas,Ilocos Norte,Region I,Barangay 43,,,,,,
,,67f3652456b1e991bd6b0ea0,0.0,18.094451,120.717697,Dingras,Ilocos Norte,Region I,Barangay 11,,,,,,
,,67f3652456b1e991bd6b0ea1,0.0,18.238377,120.58024,Pinili,Ilocos Norte,Region I,Barangay 16,,,,,,
,,67f3652456b1e991bd6b0ea2,0.0,18.167506,120.597177,San Nicolas,Ilocos Norte,Region I,Barangay 3,,,,,,
,,67f3652456b1e991bd6b0ea3,0.0,18.207321,120.585818,Laoag,Ilocos Norte,Region I,Barangay 19,,,,,,
,,67f3652456b1e991bd6b0ea4,0.0,18.114157,120.761766,Badoc,Ilocos Norte,Region I,Barangay 1,,,,,,
,,67f3652456b1e991bd6b0ea5,0.0,18.06157,120.569175,Batac,Ilocos Norte,Region I,Barangay 17,,,,,,
,,67f3652456b1e991bd6b0ea6,0.0,18.168612,120.602725,San Nicolas,Ilocos Norte,Region I,Barangay 11,,,,,,
,,67f3652456b1e991bd6b0ea7,0.0,18.165035,120.589126,San Nicolas,Ilocos Norte,Region I,Barangay 20,,,,,,
,,67f3652456b1e991bd6b0ea8,0.0,18.095447,120.704252,Dingras,Ilocos Norte,Region I,Barangay 46,,,,,,
,,67f3652456b1e991bd6b0ea9,0.0,18.056609,120.559359,Batac,Ilocos Norte,Region I,Barangay 13,,,,,,
,,67f3652456b1e991bd6b0eaa,0.0,18.100532,120.706035,Dingras,Ilocos Norte,Region I,Barangay 29,,,,,,
,,67f3652456b1e991bd6b0eab,0.0,18.057465,120.536641,Paoay,Ilocos Norte,Region I,Barangay 37,,,,,,
,,67f3652456b1e991bd6b0eac,0.0,18.101861,120.718671,Dingras,Ilocos Norte,Region I,Barangay 8,,,,,,
,,67f3652456b1e991bd6b0ead,0.0,18.048579,120.561385,Batac,Ilocos Norte,Region I,Barangay 9,,,,,,
,,67f3652456b1e991bd6b0eae,0.0,18.057557,120.571163,Batac,Ilocos Norte,Region I,Barangay 32,,,,,,
,,67f3652456b1e991bd6b0eaf,0.0,18.095031,120.710828,Dingras,Ilocos Norte,Region I,Barangay 6,,,,,,
,,67f3652456b1e991bd6b0eb0,0.0,18.162118,120.603549,San Nicolas,Ilocos Norte,Region I,Barangay 31,,,,,,
,,67f3652456b1e991bd6b0eb1,0.0,18.05078,120.572188,Batac,Ilocos Norte,Region I,Barangay 8,,,,,,
,,67f3652456b1e991bd6b0eb2,0.0,18.162196,120.590827,San Nicolas,Ilocos Norte,Region I,Barangay 42,,,,,,
,,67f3652456b1e991bd6b0eb3,0.0,18.159818,120.604581,San Nicolas,Ilocos Norte,Region I,Barangay 33,,,,,,
,,67f3652456b1e991bd6b0eb4,0.0,18.153043,120.589425,San Nicolas,Ilocos Norte,Region I,Barangay 9,,,,,,
,,67f3652456b1e991bd6b0eb5,0.0,18.0689,120.530565,Paoay,Ilocos Norte,Region I,Barangay 19,,,,,,
,,67f3652456b1e991bd6b0eb6,0.0,18.056984,120.563667,Batac,Ilocos Norte,Region I,Barangay 6,,,,,,
,,67f3652456b1e991bd6b0eb7,0.0,18.057268,120.528622,Paoay,Ilocos Norte,Region I,Barangay 32,,,,,,
,,67f3652456b1e991bd6b0eb8,0.0,18.188565,120.597962,Laoag,Ilocos Norte,Region I,Barangay 23,,,,,,
,,67f3652456b1e991bd6b0eb9,0.0,18.061588,120.534363,Paoay,Ilocos Norte,Region I,Barangay 45,,,,,,
,,67f3652456b1e991bd6b0eba,0.0,18.061531,120.558994,Batac,Ilocos Norte,Region I,Barangay 22,,,,,,
,,67f3652456b1e991bd6b0ebb,0.0,18.064233,120.566092,Batac,Ilocos Norte,Region I,Barangay 4,,,,,,
,,67f3652456b1e991bd6b0ebc,0.0,18.05092,120.55792,Batac,Ilocos Norte,Region I,Barangay 11,,,,,,
,,67f3652456b1e991bd6b0ebd,0.0,18.206128,120.602653,Laoag,Ilocos Norte,Region I,Barangay 31,,,,,,
,,67f3652456b1e991bd6b0ebe,0.0,18.061719,120.563291,Batac,Ilocos Norte,Region I,Barangay 14,,,,,,
,,67f3652456b1e991bd6b0ebf,0.0,18.223039,120.632144,Vintar,Ilocos Norte,Region I,Barangay 24,,,,,,
,,67f3652456b1e991bd6b0ec0,0.0,18.091384,120.715985,Dingras,Ilocos Norte,Region I,Barangay 4,,,,,,
,,67f3652456b1e991bd6b0ec1,0.0,18.05939,120.523042,Paoay,Ilocos Norte,Region I,Barangay 19,,,,,,
,,67f3652456b1e991bd6b0ec2,0.0,18.096736,120.706601,Dingras,Ilocos Norte,Region I,Barangay 19,,,,,,
,,67f3652456b1e991bd6b0ec3,0.0,18.162312,120.605143,San Nicolas,Ilocos Norte,Region I,Barangay 23,,,,,,
,,67f3652456b1e991bd6b0ec4,0.0,18.049598,120.57099,Batac,Ilocos Norte,Region I,Barangay 4,,,,,,
,,67f3652456b1e991bd6b0ec5,0.0,18.196751,120.588525,Laoag,Ilocos Norte,Region I,Barangay 38,,,,,,
,,67f3652456b1e991bd6b0ec6,0.0,18.197228,120.583807,Laoag,Ilocos Norte,Region I,Barangay 5,,,,,,
,,67f3652456b1e991bd6b0ec7,0.0,18.06204,120.571394,Batac,Ilocos Norte,Region I,Barangay 20,,,,,,
,,67f3652456b1e991bd6b0ec8,0.0,18.205209,120.589946,Laoag,Ilocos Norte,Region I,Barangay 21,,,,,,
,,67f3652456b1e991bd6b0ec9,0.0,18.058634,120.539209,Paoay,Ilocos Norte,Region I,Barangay 47,,,,,,
,,67f3652456b1e991bd6b0eca,0.0,18.070529,120.523224,Paoay,Ilocos Norte,Region I,Barangay 25,,,,,,
,,67f3652456b1e991bd6b0ecb,0.0,18.053512,120.559491,Batac,Ilocos Norte,Region I,Barangay 38,,,,,,
,,67f3652456b1e991bd6b0ecc,0.0,18.161421,120.587095,San Nicolas,Ilocos Norte,Region I,Barangay 6,,,,,,
,,67f3652456b1e991bd6b0ecd,0.0,18.070473,120.533206,Paoay,Ilocos Norte,Region I,Barangay 14,,,,,,
,,67f3652456b1e991bd6b0ece,0.0,18.085239,120.724255,Pinili,Ilocos Norte,Region I,Barangay 42,,,,,,
,,67f3652456b1e991bd6b0ecf,0.0,18.096642,120.723282,Dingras,Ilocos Norte,Region I,Barangay 44,,,,,,
,,67f3652456b1e991bd6b0ed0,0.0,18.057297,120.529418,Paoay,Ilocos Norte,Region I,Barangay 30,,,,,,
,,67f3652456b1e991bd6b0ed1,0.0,18.117669,120.683071,Nueva Era,Ilocos Norte,Region I,Barangay 36,,,,,,
,,67f3652456b1e991bd6b0ed2,0.0,18.164028,120.604722,San Nicolas,Ilocos Norte,Region I,Barangay 10,,,,,,
,,67f3652456b1e991bd6b0ed3,0.0,18.16655,120.601852,San Nicolas,Ilocos Norte,Region I,Barangay 35,,,,,,
,,67f3652456b1e991bd6b0ed4,0.0,18.099161,120.708382,Dingras,Ilocos Norte,Region I,Barangay 35,,,,,,
,,67f3652456b1e991bd6b0ed5,0.0,18.10242,120.703341,Dingras,Ilocos Norte,Region I,Barangay 6,,,,,,
,,67f3652456b1e991bd6b0ed6,0.0,18.098458,120.716206,Dingras,Ilocos Norte,Region I,Barangay 43,,,,,,
,,67f3652456b1e991bd6b0ed7,0.0,18.053417,120.522746,Paoay,Ilocos Norte,Region I,Barangay 25,,,,,,
,,67f3652456b1e991bd6b0ed8,0.0,18.104628,120.717588,Dingras,Ilocos Norte,Region I,Barangay 28,,,,,,
,,67f3652456b1e991bd6b0ed9,0.0,18.050478,120.569438,Batac,Ilocos Norte,Region I,Barangay 16,,,,,,
,,67f3652456b1e991bd6b0eda,0.0,18.049328,120.569134,Batac,Ilocos Norte,Region I,Barangay 10,,,,,,
,,67f3652456b1e991bd6b0edb,0.0,18.202862,120.59524,Laoag,Ilocos Norte,Region I,Barangay 14,,,,,,
,,67f3652456b1e991bd6b0edc,0.0,18.103789,120.723224,Dingras,Ilocos Norte,Region I,Barangay 30,,,,,,
,,67f3652456b1e991bd6b0edd,0.0,18.195517,120.58319,Laoag,Ilocos Norte,Region I,Barangay 15,,,,,,
,,67f3652456b1e991bd6b0ede,0.0,18.067931,120.522568,Paoay,Ilocos Norte,Region I,Barangay 28,,,,,,
,,67f3652456b1e991bd6b0edf,0.0,18.066161,120.531171,Paoay,Ilocos Norte,Region I,Barangay 49,,,,,,
,,67f3652456b1e991bd6b0ee0,0.0,18.165845,120.589184,San Nicolas,Ilocos Norte,Region I,Barangay 32,,,,,,
,,67f3652456b1e991bd6b0ee1,0.0,18.193036,120.597505,Laoag,Ilocos Norte,Region I,Barangay 50,,,,,,
,,67f3652456b1e991bd6b0ee2,0.0,18.200053,120.587513,Laoag,Ilocos Norte,Region I,Barangay 49,,,,,,
,,67f3652456b1e991bd6b0ee3,0.0,18.190839,120.58938,Laoag,Ilocos Norte,Region I,Barangay 9,,,,,,
,,67f3652456b1e991bd6b0ee4,0.0,18.160635,120.603536,San Nicolas,Ilocos Norte,Region I,Barangay 11,,,,,,
,,67f3652456b1e991bd6b0ee5,0.0,18.056355,120.538193,Paoay,Ilocos Norte,Region I,Barangay 41,,,,,,
,,67f3652456b1e991bd6b0ee6,0.0,18.053808,120.536135,Paoay,Ilocos Norte,Region I,Barangay 20,,,,,,
,,67f3652456b1e991bd6b0ee7,0.0,18.188737,120.588044,Laoag,Ilocos Norte,Region I,Barangay 48,,,,,,
,,67f3652456b1e991bd6b0ee8,0.0,18.201902,120.593632,Laoag,Ilocos Norte,Region I,Barangay 29,,,,,,
,,67f3652456b1e991bd6b0ee9,0.0,18.20387,120.594268,Piddig,Ilocos Norte,Region I,Barangay 22,,,,,,
,,67f3652456b1e991bd6b0eea,0.0,18.193071,120.593295,Laoag,Ilocos Norte,Region I,Barangay 35,,,,,,
,,67f3652456b1e991bd6b0eeb,0.0,18.063307,120.537642,Paoay,Ilocos Norte,Region I,Barangay 17,,,,,,
,,67f3652456b1e991bd6b0eec,0.0,18.162769,120.593558,San Nicolas,Ilocos Norte,Region I,Barangay 15,,,,,,
,,67f3652456b1e991bd6b0eed,0.0,18.159087,120.599071,San Nicolas,Ilocos Norte,Region I,Barangay 22,,,,,,
,,67f3652456b1e991bd6b0eee,0.0,18.067537,120.527355,Paoay,Ilocos Norte,Region I,Barangay 23,,,,,,
,,67f3652456b1e991bd6b0eef,0.0,18.062275,120.526371,Paoay,Ilocos Norte,Region I,Barangay 10,,,,,,
,,67f3652456b1e991bd6b0ef0,0.0,18.063178,120.556938,Batac,Ilocos Norte,Region I,Barangay 27,,,,,,
,,67f3652456b1e991bd6b0ef1,0.0,18.169146,120.588449,San Nicolas,Ilocos Norte,Region I,Barangay 16,,,,,,
,,67f3652456b1e991bd6b0ef2,0.0,18.194474,120.587552,Laoag,Ilocos Norte,Region I,Barangay 12,,,,,,
,,67f3652456b1e991bd6b0ef3,0.0,18.156038,120.602087,San Nicolas,Ilocos Norte,Region I,Barangay 23,,,,,,
,,67f3652456b1e991bd6b0ef4,0.0,18.069337,120.521667,Paoay,Ilocos Norte,Region I,Barangay 20,,,,,,
,,67f3652456b1e991bd6b0ef5,0.0,18.101291,120.716463,Dingras,Ilocos Norte,Region I,Barangay 10,,,,,,
,,67f3652456b1e991bd6b0ef6,0.0,18.055268,120.538229,Paoay,Ilocos Norte,Region I,Barangay 36,,,,,,
,,67f3652456b1e991bd6b0ef7,0.0,18.063955,120.559663,Batac,Ilocos Norte,Region I,Barangay 11,,,,,,
,,67f3652456b1e991bd6b0ef8,0.0,18.063033,120.561026,Batac,Ilocos Norte,Region I,Barangay 6,,,,,,
,,67f3652456b1e991bd6b0ef9,0.0,18.066556,120.530947,Paoay,Ilocos Norte,Region I,Barangay 42,,,,,,
,,67f3652456b1e991bd6b0efa,0.0,18.096109,120.715426,Dingras,Ilocos Norte,Region I,Barangay 6,,,,,,
,,67f3652456b1e991bd6b0efb,0.0,18.155713,120.59216,San Nicolas,Ilocos Norte,Region I,Barangay 32,,,,,,
,,67f3652456b1e991bd6b0efc,0.0,18.069849,120.527792,Paoay,Ilocos Norte,Region I,Barangay 11,,,,,,
,,67f3652456b1e991bd6b0efd,0.0,18.051642,120.536967,Paoay,Ilocos Norte,Region I,Barangay 15,,,,,,
,,67f3652456b1e991bd6b0efe,0.0,18.045729,120.560379,Batac,Ilocos Norte,Region I,Barangay 43,,,,,,
,,67f3652456b1e991bd6b0eff,0.0,18.063858,120.569641,Batac,Ilocos Norte,Region I,Barangay 30,,,,,,
,,67f3652456b1e991bd6b0f00,0.0,18.068567,120.527954,Paoay,Ilocos Norte,Region I,Barangay 8,,,,,,
,,67f3652456b1e991bd6b0f01,0.0,18.092879,120.720652,Dingras,Ilocos Norte,Region I,Barangay 32,,,,,,
,,67f3652456b1e991bd6b0f02,0.0,18.059696,120.533801,Paoay,Ilocos Norte,Region I,Barangay 9,,,,,,
,,67f3652456b1e991bd6b0f03,0.0,18.055672,120.520271,Paoay,Ilocos Norte,Region I,Barangay 6,,,,,,
,,67f3652456b1e991bd6b0f04,0.0,18.199377,120.5515,Vintar,Ilocos Norte,Region I,Barangay 26,,,,,,
,,67f3652456b1e991bd6b0f05,0.0,18.065745,120.52837,Paoay,Ilocos Norte,Region I,Barangay 45,,,,,,
,,67f3652456b1e991bd6b0f06,0.0,18.204767,120.598742,Laoag,Ilocos Norte,Region I,Barangay 45,,,,,,
,,67f3652456b1e991bd6b0f07,0.0,18.15501,120.603953,San Nicolas,Ilocos Norte,Region I,Barangay 38,,,,,,
,,67f3652456b1e991bd6b0f08,0.0,18.09431,120.715804,Dingras,Ilocos Norte,Region I,Barangay 37,,,,,,
,,67f3652456b1e991bd6b0f09,0.0,18.057689,120.536675,Paoay,Ilocos Norte,Region I,Barangay 39,,,,,,
,,67f3652456b1e991bd6b0f0a,0.0,18.106592,120.722064,Dingras,Ilocos Norte,Region I,Barangay 42,,,,,,
,,67f3652456b1e991bd6b0f0b,0.0,18.167251,120.600777,San Nicolas,Ilocos Norte,Region I,Barangay 33,,,,,,
,,67f3652456b1e991bd6b0f0c,0.0,18.201338,120.583454,Laoag,Ilocos Norte,Region I,Barangay 12,,,,,,
,,67f3652456b1e991bd6b0f0d,0.0,18.156756,120.592945,San Nicolas,Ilocos Norte,Region I,Barangay 36,,,,,,
,,67f3652456b1e991bd6b0f0e,0.0,18.152833,120.602417,San Nicolas,Ilocos Norte,Region I,Barangay 41,,,,,,
,,67f3652456b1e991bd6b0f0f,0.0,18.031094,120.516861,Solsona,Ilocos Norte,Region I,Barangay 43,,,,,,
,,67f3652456b1e991bd6b0f10,0.0,18.050839,120.55751,Batac,Ilocos Norte,Region I,Barangay 26,,,,,,
,,67f3652456b1e991bd6b0f11,0.0,18.190371,120.598181,Laoag,Ilocos Norte,Region I,Barangay 23,,,,,,
,,67f3652456b1e991bd6b0f12,0.0,18.198499,120.587147,Laoag,Ilocos Norte,Region I,Barangay 23,,,,,,
,,67f3652456b1e991bd6b0f13,0.0,18.067734,120.534913,Paoay,Ilocos Norte,Region I,Barangay 3,,,,,,
,,67f3652456b1e991bd6b0f14,0.0,18.07001,120.524896,Paoay,Ilocos Norte,Region I,Barangay 48,,,,,,
,,67f3652456b1e991bd6b0f15,0.0,18.1909,120.596959,Laoag,Ilocos Norte,Region I,Barangay 17,,,,,,
,,67f3652456b1e991bd6b0f16,0.0,18.063205,120.558696,Batac,Ilocos Norte,Region I,Barangay 8,,,,,,
,,67f3652456b1e991bd6b0f17,0.0,18.06286,120.563567,Batac,Ilocos Norte,Region I,Barangay 33,,,,,,
,,67f3652456b1e991bd6b0f18,0.0,18.159809,120.587084,San Nicolas,Ilocos Norte,Region I,Barangay 2,,,,,,
,,67f3652456b1e991bd6b0f19,0.0,18.05565,120.56397,Batac,Ilocos Norte,Region I,Barangay 16,,,,,,
,,67f3652456b1e991bd6b0f1a,0.0,18.15956,120.587667,San Nicolas,Ilocos Norte,Region I,Barangay 46,,,,,,
,,67f3652456b1e991bd6b0f1b,0.0,18.091784,120.721957,Dingras,Ilocos Norte,Region I,Barangay 21,,,,,,
,,67f3652456b1e991bd6b0f1c,0.0,18.063858,120.53606,Paoay,Ilocos Norte,Region I,Barangay 3,,,,,,
,,67f3652456b1e991bd6b0f1d,0.0,18.205742,120.591401,Laoag,Ilocos Norte,Region I,Barangay 20,,,,,,
,,67f3652456b1e991bd6b0f1e,0.0,18.055457,120.531018,Paoay,Ilocos Norte,Region I,Barangay 48,,,,,,
,,67f3652456b1e991bd6b0f1f,0.0,18.191728,120.593214,Laoag,Ilocos Norte,Region I,Barangay 33,,,,,,
,,67f3652456b1e991bd6b0f20,0.0,18.089585,120.709464,Dingras,Ilocos Norte,Region I,Barangay 13,,,,,,
,,67f3652456b1e991bd6b0f21,0.0,18.064455,120.53174,Paoay,Ilocos Norte,Region I,Barangay 3,,,,,,
,,67f3652456b1e991bd6b0f22,0.0,18.056576,120.570483,Batac,Ilocos Norte,Region I,Barangay 44,,,,,,
,,67f3652456b1e991bd6b0f23,0.0,18.189329,120.586206,Laoag,Ilocos Norte,Region I,Barangay 21,,,,,,
,,67f3652456b1e991bd6b0f24,0.0,18.090658,120.717041,Dingras,Ilocos Norte,Region I,Barangay 11,,,,,,
,,67f3652456b1e991bd6b0f25,0.0,18.054825,120.533185,Paoay,Ilocos Norte,Region I,Barangay 27,,,,,,
,,67f3652456b1e991bd6b0f26,0.0,18.094934,120.721639,Dingras,Ilocos Norte,Region I,Barangay 8,,,,,,
,,67f3652456b1e991bd6b0f27,0.0,18.135386,120.552142,Pasuquin,Ilocos Norte,Region I,Barangay 32,,,,,,
,,67f3652456b1e991bd6b0f28,0.0,18.064988,120.566351,Batac,Ilocos Norte,Region I,Barangay 48,,,,,,
,,67f3652456b1e991bd6b0f29,0.0,18.097526,120.714022,Dingras,Ilocos Norte,Region I,Barangay 41,,,,,,
,,67f3652456b1e991bd6b0f2a,0.0,18.061355,120.562712,Batac,Ilocos Norte,Region I,Barangay 16,,,,,,
,,67f3652456b1e991bd6b0f2b,0.0,18.070478,120.529916,Paoay,Ilocos Norte,Region I,Barangay 39,,,,,,
,,67f3652456b1e991bd6b0f2c,0.0,18.071111,120.537835,Paoay,Ilocos Norte,Region I,Barangay 46,,,,,,
,,67f3652456b1e991bd6b0f2d,0.0,18.045674,120.557073,Batac,Ilocos Norte,Region I,Barangay 37,,,,,,
,,67f3652456b1e991bd6b0f2e,0.0,18.067255,120.537945,Paoay,Ilocos Norte,Region I,Barangay 41,,,,,,
,,67f3652456b1e991bd6b0f2f,0.0,18.195375,120.597641,Laoag,Ilocos Norte,Region I,Barangay 38,,,,,,
,,67f3652456b1e991bd6b0f30,0.0,18.071177,120.526913,Paoay,Ilocos Norte,Region I,Barangay 6,,,,,,
,,67f3652456b1e991bd6b0f31,0.0,18.169673,120.59719,San Nicolas,Ilocos Norte,Region I,Barangay 5,,,,,,
,,67f3652456b1e991bd6b0f32,0.0,18.203349,120.592558,Laoag,Ilocos Norte,Region I,Barangay 5,,,,,,
,,67f3652456b1e991bd6b0f33,0.0,18.190383,120.594246,Laoag,Ilocos Norte,Region I,Barangay 2,,,,,,
,,67f3652456b1e991bd6b0f34,0.0,18.093177,120.7161,Dingras,Ilocos Norte,Region I,Barangay 43,,,,,,
,,67f3652456b1e991bd6b0f35,0.0,18.152775,120.593692,San Nicolas,Ilocos Norte,Region I,Barangay 30,,,,,,
,,67f3652456b1e991bd6b0f36,0.0,18.19231,120.589063,Laoag,Ilocos Norte,Region I,Barangay 33,,,,,,
,,67f3652456b1e991bd6b0f37,0.0,18.097917,120.706778,Dingras,Ilocos Norte,Region I,Barangay 42,,,,,,
,,67f3652456b1e991bd6b0f38,0.0,18.06633,120.529779,Paoay,Ilocos Norte,Region I,Barangay 23,,,,,,
,,67f3652456b1e991bd6b0f39,0.0,18.101094,120.71368,Sarrat,Ilocos Norte,Region I,Barangay 19,,,,,,
,,67f3652456b1e991bd6b0f3a,0.0,18.204205,120.589602,Laoag,Ilocos Norte,Region I,Barangay 47,,,,,,
,,67f3652456b1e991bd6b0f3b,0.0,18.167222,120.604143,San Nicolas,Ilocos Norte,Region I,Barangay 18,,,,,,
,,67f3652456b1e991bd6b0f3c,0.0,18.154074,120.593318,San Nicolas,Ilocos Norte,Region I,Barangay 30,,,,,,
,,67f3652456b1e991bd6b0f3d,0.0,18.095278,120.718455,Dingras,Ilocos Norte,Region I,Barangay 15,,,,,,
,,67f3652456b1e991bd6b0f3e,0.0,18.190751,120.596956,Laoag,Ilocos Norte,Region I,Barangay 24,,,,,,
,,67f3652456b1e991bd6b0f3f,0.0,18.096976,120.703661,Dingras,Ilocos Norte,Region I,Barangay 9,,,,,,
,,67f3652456b1e991bd6b0f40,0.0,18.060324,120.529485,Paoay,Ilocos Norte,Region I,Barangay 35,,,,,,
,,67f3652456b1e991bd6b0f41,0.0,18.100059,120.713622,Dingras,Ilocos Norte,Region I,Barangay 3,,,,,,
,,67f3652456b1e991bd6b0f42,0.0,18.158624,120.589127,San Nicolas,Ilocos Norte,Region I,Barangay 49,,,,,,
,,67f3652456b1e991bd6b0f43,0.0,18.150843,120.597703,San Nicolas,Ilocos Norte,Region I,Barangay 16,,,,,,
,,67f3652456b1e991bd6b0f44,0.0,18.052855,120.529337,Paoay,Ilocos Norte,Region I,Barangay 10,,,,,,
,,67f3652456b1e991bd6b0f45,0.0,18.052354,120.56792,Sarrat,Ilocos Norte,Region I,Barangay 7,,,,,,
,,67f3652456b1e991bd6b0f46,0.0,18.099944,120.708561,Dingras,Ilocos Norte,Region I,Barangay 5,,,,,,
,,67f3652456b1e991bd6b0f47,0.0,18.055012,120.539236,Paoay,Ilocos Norte,Region I,Barangay 22,,,,,,
,,67f3652456b1e991bd6b0f48,0.0,18.057513,120.558022,Batac,Ilocos Norte,Region I,Barangay 9,,,,,,
,,67f3652456b1e991bd6b0f49,0.0,18.05699,120.566653,Batac,Ilocos Norte,Region I,Barangay 42,,,,,,
,,67f3652456b1e991bd6b0f4a,0.0,18.158949,120.590636,San Nicolas,Ilocos Norte,Region I,Barangay 20,,,,,,
,,67f3652456b1e991bd6b0f4b,0.0,18.165209,120.587883,San Nicolas,Ilocos Norte,Region I,Barangay 36,,,,,,
,,67f3652456b1e991bd6b0f4c,0.0,18.160303,120.5868,San Nicolas,Ilocos Norte,Region I,Barangay 28,,,,,,
,,67f3652456b1e991bd6b0f4d,0.0,18.062853,120.520388,Paoay,Ilocos Norte,Region I,Barangay 22,,,,,,
,,67f3652456b1e991bd6b0f4e,0.0,18.059533,120.570207,Batac,Ilocos Norte,Region I,Barangay 42,,,,,,
,,67f3652456b1e991bd6b0f4f,0.0,18.015007,120.507756,Dumalneg,Ilocos Norte,Region I,Barangay 23,,,,,,
,,67f3652456b1e991bd6b0f50,0.0,18.191122,120.586666,Laoag,Ilocos Norte,Region I,Barangay 11,,,,,,
,,67f3652456b1e991bd6b0f51,0.0,18.105689,120.709923,Dingras,Ilocos Norte,Region I,Barangay 35,,,,,,
,,67f3652456b1e991bd6b0f52,0.0,18.157634,120.596683,San Nicolas,Ilocos Norte,Region I,Barangay 39,,,,,,
,,67f3652456b1e991bd6b0f53,0.0,18.06575,120.535109,Paoay,Ilocos Norte,Region I,Barangay 27,,,,,,
,,67f3652456b1e991bd6b0f54,0.0,18.065732,120.526617,Paoay,Ilocos Norte,Region I,Barangay 37,,,,,,
,,67f3652456b1e991bd6b0f55,0.0,18.099688,120.714155,Dingras,Ilocos Norte,Region I,Barangay 31,,,,,,
,,67f3652456b1e991bd6b0f56,0.0,18.051612,120.559004,Batac,Ilocos Norte,Region I,Barangay 21,,,,,,
,,67f3652456b1e991bd6b0f57,0.0,18.205031,120.583252,Laoag,Ilocos Norte,Region I,Barangay 2,,,,,,
,,67f3652456b1e991bd6b0f58,0.0,18.15502,120.589019,San Nicolas,Ilocos Norte,Region I,Barangay 25,,,,,,
,,67f3652456b1e991bd6b0f59,0.0,18.153149,120.596663,San Nicolas,Ilocos Norte,Region I,Barangay 35,,,,,,
,,67f3652456b1e991bd6b0f5a,0.0,18.190538,120.591759,Laoag,Ilocos Norte,Region I,Barangay 32,,,,,,
,,67f3652456b1e991bd6b0f5b,0.0,18.202243,120.592742,Laoag,Ilocos Norte,Region I,Barangay 10,,,,,,
,,67f3652456b1e991bd6b0f5c,0.0,18.207574,120.58609,Laoag,Ilocos Norte,Region I,Barangay 38,,,,,,
,,67f3652456b1e991bd6b0f5d,0.0,18.061587,120.556192,Batac,Ilocos Norte,Region I,Barangay 16,,,,,,
,,67f3652456b1e991bd6b0f5e,0.0,18.100045,120.715671,Dingras,Ilocos Norte,Region I,Barangay 18,,,,,,
,,67f3652456b1e991bd6b0f5f,0.0,18.160704,120.60065,San Nicolas,Ilocos Norte,Region I,Barangay 35,,,,,,
,,67f3652456b1e991bd6b0f60,0.0,18.152923,120.586693,San Nicolas,Ilocos Norte,Region I,Barangay 39,,,,,,
,,67f3652456b1e991bd6b0f61,0.0,18.20346,120.600794,Laoag,Ilocos Norte,Region I,Barangay 19,,,,,,
,,67f3652456b1e991bd6b0f62,0.0,18.065412,120.530324,Paoay,Ilocos Norte,Region I,Barangay 26,,,,,,
,,67f3652456b1e991bd6b0f63,0.0,18.045421,120.585494,Pasuquin,Ilocos Norte,Region I,Barangay 35,,,,,,
,,67f3652456b1e991bd6b0f64,0.0,18.092011,120.704755,Dingras,Ilocos Norte,Region I,Barangay 15,,,,,,
,,67f3652456b1e991bd6b0f65,0.0,18.103598,120.609688,Marcos,Ilocos Norte,Region I,Barangay 1,,,,,,
,,67f3652456b1e991bd6b0f66,0.0,18.195188,120.598232,Laoag,Ilocos Norte,Region I,Barangay 17,,,,,,
,,67f3652456b1e991bd6b0f67,0.0,18.110018,120.67499,Marcos,Ilocos Norte,Region I,Barangay 48,,,,,,
,,67f3652456b1e991bd6b0f68,0.0,18.166675,120.597959,San Nicolas,Ilocos Norte,Region I,Barangay 16,,,,,,
,,67f3652456b1e991bd6b0f69,0.0,18.069433,120.531436,Paoay,Ilocos Norte,Region I,Barangay 2,,,,,,
,,67f3652456b1e991bd6b0f6a,0.0,18.196533,120.601016,Laoag,Ilocos Norte,Region I,Barangay 48,,,,,,
,,67f3652456b1e991bd6b0f6b,0.0,18.06351,120.526303,Paoay,Ilocos Norte,Region I,Barangay 5,,,,,,
,,67f3652456b1e991bd6b0f6c,0.0,18.201365,120.601738,Laoag,Ilocos Norte,Region I,Barangay 39,,,,,,
,,67f3652456b1e991bd6b0f6d,0.0,18.096623,120.713824,Dingras,Ilocos Norte,Region I,Barangay 47,,,,,,
,,67f3652456b1e991bd6b0f6e,0.0,18.201489,120.593346,Laoag,Ilocos Norte,Region I,Barangay 15,,,,,,
,,67f3652456b1e991bd6b0f6f,0.0,18.05819,120.559394,Batac,Ilocos Norte,Region I,Barangay 5,,,,,,
,,67f3652456b1e991bd6b0f70,0.0,18.055951,120.55904,Batac,Ilocos Norte,Region I,Barangay 44,,,,,,
,,67f3652456b1e991bd6b0f71,0.0,18.121864,120.740845,Bangui,Ilocos Norte,Region I,Barangay 22,,,,,,
,,67f3652456b1e991bd6b0f72,0.0,18.055848,120.53572,Paoay,Ilocos Norte,Region I,Barangay 39,,,,,,
,,67f3652456b1e991bd6b0f73,0.0,18.088604,120.718776,Dingras,Ilocos Norte,Region I,Barangay 35,,,,,,
,,67f3652456b1e991bd6b0f74,0.0,18.090456,120.711518,Dingras,Ilocos Norte,Region I,Barangay 9,,,,,,
,,67f3652456b1e991bd6b0f75,0.0,18.191753,120.588697,Laoag,Ilocos Norte,Region I,Barangay 15,,,,,,
,,67f3652456b1e991bd6b0f76,0.0,18.106658,120.721715,Dingras,Ilocos Norte,Region I,Barangay 16,,,,,,
,,67f3652456b1e991bd6b0f77,0.0,18.199795,120.601953,Laoag,Ilocos Norte,Region I,Barangay 31,,,,,,
,,67f3652456b1e991bd6b0f78,0.0,18.158299,120.602585,San Nicolas,Ilocos Norte,Region I,Barangay 32,,,,,,
,,67f3652456b1e991bd6b0f79,0.0,18.193321,120.588257,Laoag,Ilocos Norte,Region I,Barangay 21,,,,,,
,,67f3652456b1e991bd6b0f7a,0.0,18.071013,120.522703,Paoay,Ilocos Norte,Region I,Barangay 45,,,,,,
,,67f3652456b1e991bd6b0f7b,0.0,18.045314,120.557574,Batac,Ilocos Norte,Region I,Barangay 48,,,,,,
,,67f3652456b1e991bd6b0f7c,0.0,18.153052,120.604883,San Nicolas,Ilocos Norte,Region I,Barangay 42,,,,,,
,,67f3652456b1e991bd6b0f7d,0.0,18.19799,120.597946,Laoag,Ilocos Norte,Region I,Barangay 20,,,,,,
,,67f3652456b1e991bd6b0f7e,0.0,18.05514,120.567259,Batac,Ilocos Norte,Region I,Barangay 12,,,,,,
,,67f3652456b1e991bd6b0f7f,0.0,18.092925,120.718407,Dingras,Ilocos Norte,Region I,Barangay 14,,,,,,
,,67f3652456b1e991bd6b0f80,0.0,18.197987,120.602634,Laoag,Ilocos Norte,Region I,Barangay 28,,,,,,
,,67f3652456b1e991bd6b0f81,0.0,18.064302,120.574069,Batac,Ilocos Norte,Region I,Barangay 1,,,,,,
,,67f3652456b1e991bd6b0f82,0.0,18.200695,120.590918,Laoag,Ilocos Norte,Region I,Barangay 31,,,,,,
,,67f3652456b1e991bd6b0f83,0.0,18.102683,120.721897,Dingras,Ilocos Norte,Region I,Barangay 21,,,,,,
,,67f3652456b1e991bd6b0f84,0.0,18.099766,120.712613,Dingras,Ilocos Norte,Region I,Barangay 9,,,,,,
,,67f3652456b1e991bd6b0f85,0.0,18.090536,120.721123,Dingras,Ilocos Norte,Region I,Barangay 43,,,,,,
,,67f3652456b1e991bd6b0f86,0.0,18.187853,120.593743,Laoag,Ilocos Norte,Region I,Barangay 46,,,,,,
,,67f3652456b1e991bd6b0f87,0.0,18.051957,120.571133,Batac,Ilocos Norte,Region I,Barangay 28,,,,,,
,,67f3652456b1e991bd6b0f88,0.0,18.188165,120.58954,Laoag,Ilocos Norte,Region I,Barangay 1,,,,,,
,,67f3652456b1e991bd6b0f89,0.0,18.170319,120.593087,San Nicolas,Ilocos Norte,Region I,Barangay 10,,,,,,
,,67f3652456b1e991bd6b0f8a,0.0,18.091377,120.712611,Dingras,Ilocos Norte,Region I,Barangay 50,,,,,,
,,67f3652456b1e991bd6b0f8b,0.0,18.102457,120.712362,Dingras,Ilocos Norte,Region I,Barangay 35,,,,,,
,,67f3652456b1e991bd6b0f8c,0.0,18.190946,120.591538,Laoag,Ilocos Norte,Region I,Barangay 45,,,,,,
,,67f3652456b1e991bd6b0f8d,0.0,18.057974,120.563459,Batac,Ilocos Norte,Region I,Barangay 28,,,,,,
,,67f3652456b1e991bd6b0f8e,0.0,18.206378,120.599491,Laoag,Ilocos Norte,Region I,Barangay 8,,,,,,
,,67f3652456b1e991bd6b0f8f,0.0,18.051173,120.567688,Batac,Ilocos Norte,Region I,Barangay 41,,,,,,
,,67f3652456b1e991bd6b0f90,0.0,18.200777,120.596903,Laoag,Ilocos Norte,Region I,Barangay 49,,,,,,
,,67f3652456b1e991bd6b0f91,0.0,18.108154,120.70499,Dingras,Ilocos Norte,Region I,Barangay 41,,,,,,
,,67f3652456b1e991bd6b0f92,0.0,18.052028,120.53798,Paoay,Ilocos Norte,Region I,Barangay 1,,,,,,
,,67f3652456b1e991bd6b0f93,0.0,18.052002,120.571037,Batac,Ilocos Norte,Region I,Barangay 40,,,,,,
,,67f3652456b1e991bd6b0f94,0.0,18.068287,120.537216,Paoay,Ilocos Norte,Region I,Barangay 22,,,,,,
,,67f3652456b1e991bd6b0f95,0.0,18.194385,120.586785,Laoag,Ilocos Norte,Region I,Barangay 12,,,,,,
,,67f3652456b1e991bd6b0f96,0.0,18.089028,120.721926,Dingras,Ilocos Norte,Region I,Barangay 40,,,,,,
,,67f3652456b1e991bd6b0f97,0.0,18.090982,120.717778,Dingras,Ilocos Norte,Region I,Barangay 47,,,,,,
,,67f3652456b1e991bd6b0f98,0.0,18.104374,120.716725,Dingras,Ilocos Norte,Region I,Barangay 38,,,,,,
,,67f3652456b1e991bd6b0f99,0.0,18.195914,120.59015,Laoag,Ilocos Norte,Region I,Barangay 26,,,,,,
,,67f3652456b1e991bd6b0f9a,0.0,18.060445,120.506922,Adams,Ilocos Norte,Region I,Barangay 28,,,,,,
,,67f3652456b1e991bd6b0f9b,0.0,18.06183,120.520148,Paoay,Ilocos Norte,Region I,Barangay 31,,,,,,
,,67f3652456b1e991bd6b0f9c,0.0,18.207713,120.599272,Laoag,Ilocos Norte,Region I,Barangay 13,,,,,,
,,67f3652456b1e991bd6b0f9d,0.0,18.068585,120.531448,Paoay,Ilocos Norte,Region I,Barangay 40,,,,,,
,,67f3652456b1e991bd6b0f9e,0.0,18.197319,120.583526,Laoag,Ilocos Norte,Region I,Barangay 3,,,,,,
,,67f3652456b1e991bd6b0f9f,0.0,18.19702,120.590208,Laoag,Ilocos Norte,Region I,Barangay 43,,,,,,
,,67f3652456b1e991bd6b0fa0,0.0,18.168784,120.594409,San Nicolas,Ilocos Norte,Region I,Barangay 45,,,,,,
,,67f3652456b1e991bd6b0fa1,0.0,18.060316,120.56502,Batac,Ilocos Norte,Region I,Barangay 17,,,,,,
,,67f3652456b1e991bd6b0fa2,0.0,18.057258,120.567796,Batac,Ilocos Norte,Region I,Barangay 39,,,,,,
,,67f3652456b1e991bd6b0fa3,0.0,18.165839,120.59195,San Nicolas,Ilocos Norte,Region I,Barangay 9,,,,,,
,,67f3652456b1e991bd6b0fa4,0.0,18.150906,120.592993,San Nicolas,Ilocos Norte,Region I,Barangay 20,,,,,,
,,67f3652456b1e991bd6b0fa5,0.0,18.188684,120.589374,Laoag,Ilocos Norte,Region I,Barangay 19,,,,,,
,,67f3652456b1e991bd6b0fa6,0.0,18.157362,120.595069,San Nicolas,Ilocos Norte,Region I,Barangay 33,,,,,,
,,67f3652456b1e991bd6b0fa7,0.0,18.164616,120.604202,San Nicolas,Ilocos Norte,Region I,Barangay 32,,,,,,
,,67f3652456b1e991bd6b0fa8,0.0,18.060138,120.52224,Paoay,Ilocos Norte,Region I,Barangay 1,,,,,,
,,67f3652456b1e991bd6b0fa9,0.0,18.202357,120.585571,Laoag,Ilocos Norte,Region I,Barangay 43,,,,,,
,,67f3652456b1e991bd6b0faa,0.0,18.167459,120.592783,San Nicolas,Ilocos Norte,Region I,Barangay 1,,,,,,
,,67f3652456b1e991bd6b0fab,0.0,18.048993,120.558744,Batac,Ilocos Norte,Region I,Barangay 1,,,,,,
,,67f3652456b1e991bd6b0fac,0.0,18.046859,120.564938,Batac,Ilocos Norte,Region I,Barangay 15,,,,,,
,,67f3652456b1e991bd6b0fad,0.0,18.198299,120.600726,Laoag,Ilocos Norte,Region I,Barangay 16,,,,,,
,,67f3652456b1e991bd6b0fae,0.0,18.104481,120.716253,Dingras,Ilocos Norte,Region I,Barangay 3,,,,,,
,,67f3652456b1e991bd6b0faf,0.0,18.154847,120.598249,San Nicolas,Ilocos Norte,Region I,Barangay 49,,,,,,
,,67f3652456b1e991bd6b0fb0,0.0,18.106871,120.705887,Dingras,Ilocos Norte,Region I,Barangay 37,,,,,,
,,67f3652456b1e991bd6b0fb1,0.0,18.165535,120.58904,San Nicolas,Ilocos Norte,Region I,Barangay 26,,,,,,
,,67f3652456b1e991bd6b0fb2,0.0,18.165277,120.587773,San Nicolas,Ilocos Norte,Region I,Barangay 20,,,,,,
,,67f3652456b1e991bd6b0fb3,0.0,18.063946,120.537073,Paoay,Ilocos Norte,Region I,Barangay 43,,,,,,
,,67f3652456b1e991bd6b0fb4,0.0,18.101826,120.690982,Piddig,Ilocos Norte,Region I,Barangay 33,,,,,,
,,67f3652456b1e991bd6b0fb5,0.0,18.164468,120.594291,San Nicolas,Ilocos Norte,Region I,Barangay 39,,,,,,
,,67f3652456b1e991bd6b0fb6,0.0,18.051294,120.572374,Batac,Ilocos Norte,Region I,Barangay 8,,,,,,
,,67f3652456b1e991bd6b0fb7,0.0,18.102819,120.708874,Dingras,Ilocos Norte,Region I,Barangay 1,,,,,,
,,67f3652456b1e991bd6b0fb8,0.0,18.20337,120.601164,Laoag,Ilocos Norte,Region I,Barangay 2,,,,,,
,,67f3652456b1e991bd6b0fb9,0.0,18.051794,120.561235,Batac,Ilocos Norte,Region I,Barangay 30,,,,,,
,,67f3652456b1e991bd6b0fba,0.0,18.098956,120.704524,Dingras,Ilocos Norte,Region I,Barangay 46,,,,,,
,,67f3652456b1e991bd6b0fbb,0.0,18.165376,120.59668,San Nicolas,Ilocos Norte,Region I,Barangay 35,,,,,,
,,67f3652456b1e991bd6b0fbc,0.0,18.056949,120.538249,Paoay,Ilocos Norte,Region I,Barangay 34,,,,,,
,,67f3652456b1e991bd6b0fbd,0.0,18.055249,120.558533,Batac,Ilocos Norte,Region I,Barangay 21,,,,,,
,,67f3652456b1e991bd6b0fbe,0.0,18.161511,120.603938,San Nicolas,Ilocos Norte,Region I,Barangay 17,,,,,,
,,67f3652456b1e991bd6b0fbf,0.0,18.158627,120.601051,San Nicolas,Ilocos Norte,Region I,Barangay 4,,,,,,
,,67f3652456b1e991bd6b0fc0,0.0,18.061808,120.557219,Batac,Ilocos Norte,Region I,Barangay 41,,,,,,
,,67f3652456b1e991bd6b0fc1,0.0,18.098069,120.711687,Dingras,Ilocos Norte,Region I,Barangay 3,,,,,,
,,67f3652456b1e991bd6b0fc2,0.0,18.161098,120.605136,San Nicolas,Ilocos Norte,Region I,Barangay 4,,,,,,
,,67f3652456b1e991bd6b0fc3,0.0,18.058539,120.562843,Batac,Ilocos Norte,Region I,Barangay 49,,,,,,
,,67f3652456b1e991bd6b0fc4,0.0,18.09544,120.708508,Dingras,Ilocos Norte,Region I,Barangay 10,,,,,,
,,67f3652456b1e991bd6b0fc5,0.0,18.097787,120.70582,Dingras,Ilocos Norte,Region I,Barangay 14,,,,,,
,,67f3652456b1e991bd6b0fc6,0.0,18.159272,120.588097,San Nicolas,Ilocos Norte,Region I,Barangay 19,,,,,,
,,67f3652456b1e991bd6b0fc7,0.0,18.063155,120.535922,Paoay,Ilocos Norte,Region I,Barangay 50,,,,,,
,,67f3652456b1e991bd6b0fc8,0.0,18.060079,120.55857,Batac,Ilocos Norte,Region I,Barangay 16,,,,,,
,,67f3652456b1e991bd6b0fc9,0.0,18.198877,120.583591,Laoag,Ilocos Norte,Region I,Barangay 10,,,,,,
,,67f3652456b1e991bd6b0fca,0.0,18.161035,120.605966,San Nicolas,Ilocos Norte,Region I,Barangay 6,,,,,,
,,67f3652456b1e991bd6b0fcb,0.0,18.196519,120.583689,Laoag,Ilocos Norte,Region I,Barangay 11,,,,,,
,,67f3652456b1e991bd6b0fcc,0.0,18.089613,120.711489,Dingras,Ilocos Norte,Region I,Barangay 15,,,,,,
,,67f3652456b1e991bd6b0fcd,0.0,18.098614,120.712963,Dingras,Ilocos Norte,Region I,Barangay 43,,,,,,
,,67f3652456b1e991bd6b0fce,0.0,18.054498,120.568557,Batac,Ilocos Norte,Region I,Barangay 29,,,,,,
,,67f3652456b1e991bd6b0fcf,0.0,18.047673,120.566567,Batac,Ilocos Norte,Region I,Barangay 47,,,,,,
,,67f3652456b1e991bd6b0fd0,0.0,18.202272,120.590445,Laoag,Ilocos Norte,Region I,Barangay 6,,,,,,
,,67f3652456b1e991bd6b0fd1,0.0,18.098119,120.7107,Dingras,Ilocos Norte,Region I,Barangay 33,,,,,,
,,67f3652456b1e991bd6b0fd2,0.0,18.062911,120.559435,Batac,Ilocos Norte,Region I,Barangay 24,,,,,,
,,67f3652456b1e991bd6b0fd3,0.0,18.185779,120.616104,Vintar,Ilocos Norte,Region I,Barangay 19,,,,,,
,,67f3652456b1e991bd6b0fd4,0.0,18.14228,120.732797,Pagudpud,Ilocos Norte,Region I,Barangay 22,,,,,,
,,67f3652456b1e991bd6b0fd5,0.0,18.097392,120.716829,Dingras,Ilocos Norte,Region I,Barangay 7,,,,,,
,,67f3652456b1e991bd6b0fd6,0.0,18.033541,120.536024,Solsona,Ilocos Norte,Region I,Barangay 2,,,,,,
,,67f3652456b1e991bd6b0fd7,0.0,18.193973,120.589613,Laoag,Ilocos Norte,Region I,Barangay 18,,,,,,
,,67f3652456b1e991bd6b0fd8,0.0,18.061852,120.563815,Batac,Ilocos Norte,Region I,Barangay 48,,,,,,
,,67f3652456b1e991bd6b0fd9,0.0,18.113262,120.547609,Adams,Ilocos Norte,Region I,Barangay 16,,,,,,
,,67f3652456b1e991bd6b0fda,0.0,18.154568,120.598608,San Nicolas,Ilocos Norte,Region I,Barangay 46,,,,,,
,,67f3652456b1e991bd6b0fdb,0.0,18.102195,120.712066,Dingras,Ilocos Norte,Region I,Barangay 2,,,,,,
,,67f3652456b1e991bd6b0fdc,0.0,18.061603,120.557919,Batac,Ilocos Norte,Region I,Barangay 44,,,,,,
,,67f3652456b1e991bd6b0fdd,0.0,18.200095,120.599099,Laoag,Ilocos Norte,Region I,Barangay 43,,,,,,
,,67f3652456b1e991bd6b0fde,0.0,18.055209,120.5593,Batac,Ilocos Norte,Region I,Barangay 16,,,,,,
,,67f3652456b1e991bd6b0fdf,0.0,18.160258,120.601088,San Nicolas,Ilocos Norte,Region I,Barangay 30,,,,,,
,,67f3652456b1e991bd6b0fe0,0.0,18.205375,120.596308,Laoag,Ilocos Norte,Region I,Barangay 20,,,,,,
,,67f3652456b1e991bd6b0fe1,0.0,18.169222,120.601176,San Nicolas,Ilocos Norte,Region I,Barangay 27,,,,,,
,,67f3652456b1e991bd6b0fe2,0.0,18.059094,120.536001,Paoay,Ilocos Norte,Region I,Barangay 39,,,,,,
,,67f3652456b1e991bd6b0fe3,0.0,18.062503,120.522378,Paoay,Ilocos Norte,Region I,Barangay 34,,,,,,
,,67f3652456b1e991bd6b0fe4,0.0,18.063178,120.527897,Paoay,Ilocos Norte,Region I,Barangay 40,,,,,,
,,67f3652456b1e991bd6b0fe5,0.0,18.170215,120.6052,San Nicolas,Ilocos Norte,Region I,Barangay 10,,,,,,
,,67f3652456b1e991bd6b0fe6,0.0,18.064994,120.535283,Paoay,Ilocos Norte,Region I,Barangay 37,,,,,,
,,67f3652456b1e991bd6b0fe7,0.0,18.189738,120.584253,Laoag,Ilocos Norte,Region I,Barangay 10,,,,,,
,,67f3652456b1e991bd6b0fe8,0.0,18.157233,120.590909,San Nicolas,Ilocos Norte,Region I,Barangay 32,,,,,,
,,67f3652456b1e991bd6b0fe9,0.0,18.05035,120.569894,Batac,Ilocos Norte,Region I,Barangay 14,,,,,,
,,67f3652456b1e991bd6b0fea,0.0,18.05641,120.562627,Batac,Ilocos Norte,Region I,Barangay 6,,,,,,
,,67f3652456b1e991bd6b0feb,0.0,18.056408,120.564517,Batac,Ilocos Norte,Region I,Barangay 9,,,,,,
,,67f3652456b1e991bd6b0fec,0.0,18.063337,120.5571,Batac,Ilocos Norte,Region I,Barangay 41,,,,,,
,,67f3652456b1e991bd6b0fed,0.0,18.062471,120.530731,Paoay,Ilocos Norte,Region I,Barangay 38,,,,,,
,,67f3652456b1e991bd6b0fee,0.0,18.064865,120.533775,Paoay,Ilocos Norte,Region I,Barangay 40,,,,,,
,,67f3652456b1e991bd6b0fef,0.0,18.154309,120.591105,San Nicolas,Ilocos Norte,Region I,Barangay 18,,,,,,
,,67f3652456b1e991bd6b0ff0,0.0,18.058101,120.534658,Paoay,Ilocos Norte,Region I,Barangay 46,,,,,,
,,67f3652456b1e991bd6b0ff1,0.0,18.157524,120.587448,San Nicolas,Ilocos Norte,Region I,Barangay 34,,,,,,
,,67f3652456b1e991bd6b0ff2,0.0,18.06324,120.532744,Paoay,Ilocos Norte,Region I,Barangay 18,,,,,,
,,67f3652456b1e991bd6b0ff3,0.0,18.189073,120.586298,Laoag,Ilocos Norte,Region I,Barangay 42,,,,,,
,,67f3652456b1e991bd6b0ff4,0.0,18.098588,120.706188,Dingras,Ilocos Norte,Region I,Barangay 37,,,,,,
,,67f3652456b1e991bd6b0ff5,0.0,18.163656,120.587544,San Nicolas,Ilocos Norte,Region I,Barangay 9,,,,,,
,,67f3652456b1e991bd6b0ff6,0.0,18.167617,120.603249,San Nicolas,Ilocos Norte,Region I,Barangay 22,,,,,,
,,67f3652456b1e991bd6b0ff7,0.0,18.097917,120.711891,Dingras,Ilocos Norte,Region I,Barangay 17,,,,,,
,,67f3652456b1e991bd6b0ff8,0.0,18.105346,120.7156,Dingras,Ilocos Norte,Region I,Barangay 2,,,,,,
,,67f3652456b1e991bd6b0ff9,0.0,18.049523,120.54708,Marcos,Ilocos Norte,Region I,Barangay 8,,,,,,
,,67f3652456b1e991bd6b0ffa,0.0,18.152654,120.603943,San Nicolas,Ilocos Norte,Region I,Barangay 11,,,,,,
,,67f3652456b1e991bd6b0ffb,0.0,18.199747,120.602424,Laoag,Ilocos Norte,Region I,Barangay 39,,,,,,
,,67f3652456b1e991bd6b0ffc,0.0,18.190431,120.600389,Laoag,Ilocos Norte,Region I,Barangay 46,,,,,,
,,67f3652456b1e991bd6b0ffd,0.0,18.090472,120.707144,Dingras,Ilocos Norte,Region I,Barangay 19,,,,,,
,,67f3652456b1e991bd6b0ffe,0.0,18.203425,120.602317,Laoag,Ilocos Norte,Region I,Barangay 49,,,,,,
,,67f3652456b1e991bd6b0fff,0.0,18.103241,120.708993,Dingras,Ilocos Norte,Region I,Barangay 13,,,,,,
,,67f3652456b1e991bd6b1000,0.0,18.157263,120.594274,San Nicolas,Ilocos Norte,Region I,Barangay 9,,,,,,
,,67f3652456b1e991bd6b1001,0.0,18.202727,120.599501,Laoag,Ilocos Norte,Region I,Barangay 24,,,,,,
,,67f3652456b1e991bd6b1002,0.0,18.207118,120.597908,Laoag,Ilocos Norte,Region I,Barangay 48,,,,,,
,,67f3652456b1e991bd6b1003,0.0,18.055083,120.556741,Batac,Ilocos Norte,Region I,Barangay 44,,,,,,
,,67f3652456b1e991bd6b1004,0.0,18.100182,120.72003,Dingras,Ilocos Norte,Region I,Barangay 34,,,,,,
,,67f3652456b1e991bd6b1005,0.0,18.157706,120.603538,San Nicolas,Ilocos Norte,Region I,Barangay 4,,,,,,
,,67f3652456b1e991bd6b1006,0.0,18.163851,120.605966,San Nicolas,Ilocos Norte,Region I,Barangay 48,,,,,,
,,67f3652456b1e991bd6b1007,0.0,18.045945,120.56979,Batac,Ilocos Norte,Region I,Barangay 17,,,,,,
,,67f3652456b1e991bd6b1008,0.0,18.069628,120.528767,Paoay,Ilocos Norte,Region I,Barangay 24,,,,,,
,,67f3652456b1e991bd6b1009,0.0,18.152723,120.588255,San Nicolas,Ilocos Norte,Region I,Barangay 43,,,,,,
,,67f3652456b1e991bd6b100a,0.0,18.046638,120.569317,Batac,Ilocos Norte,Region I,Barangay 46,,,,,,
,,67f3652456b1e991bd6b100b,0.0,18.093566,120.72262,Dingras,Ilocos Norte,Region I,Barangay 46,,,,,,
,,67f3652456b1e991bd6b100c,0.0,18.19012,120.602654,Laoag,Ilocos Norte,Region I,Barangay 9,,,,,,
,,67f3652456b1e991bd6b100d,0.0,18.164108,120.595298,San Nicolas,Ilocos Norte,Region I,Barangay 5,,,,,,
,,67f3652456b1e991bd6b100e,0.0,18.151591,120.591117,San Nicolas,Ilocos Norte,Region I,Barangay 38,,,,,,
,,67f3652456b1e991bd6b100f,0.0,18.059201,120.55732,Batac,Ilocos Norte,Region I,Barangay 40,,,,,,
,,67f3652456b1e991bd6b1010,0.0,18.055891,120.536439,Paoay,Ilocos Norte,Region I,Barangay 19,,,,,,
,,67f3652456b1e991bd6b1011,0.0,18.163546,120.601828,San Nicolas,Ilocos Norte,Region I,Barangay 41,,,,,,
,,67f3652456b1e991bd6b1012,0.0,18.058987,120.531552,Paoay,Ilocos Norte,Region I,Barangay 48,,,,,,
,,67f3652456b1e991bd6b1013,0.0,18.051249,120.572153,Batac,Ilocos Norte,Region I,Barangay 45,,,,,,
,,67f3652456b1e991bd6b1014,0.0,18.163062,120.596375,San Nicolas,Ilocos Norte,Region I,Barangay 8,,,,,,
,,67f3652456b1e991bd6b1015,0.0,18.047284,120.558758,Batac,Ilocos Norte,Region I,Barangay 3,,,,,,
,,67f3652456b1e991bd6b1016,0.0,18.066165,120.524732,Paoay,Ilocos Norte,Region I,Barangay 9,,,,,,
,,67f3652456b1e991bd6b1017,0.0,18.154723,120.604616,San Nicolas,Ilocos Norte,Region I,Barangay 25,,,,,,
,,67f3652456b1e991bd6b1018,0.0,18.059285,120.568252,Batac,Ilocos Norte,Region I,Barangay 49,,,,,,
,,67f3652456b1e991bd6b1019,0.0,18.120503,120.577875,Badoc,Ilocos Norte,Region I,Barangay 23,,,,,,
,,67f3652456b1e991bd6b101a,0.0,18.093709,120.709951,Dingras,Ilocos Norte,Region I,Barangay 5,,,,,,
,,67f3652456b1e991bd6b101b,0.0,18.059396,120.572459,Batac,Ilocos Norte,Region I,Barangay 7,,,,,,
,,67f3652456b1e991bd6b101c,0.0,18.063064,120.53877,Paoay,Ilocos Norte,Region I,Barangay 14,,,,,,
,,67f3652456b1e991bd6b101d,0.0,18.057597,120.529343,Paoay,Ilocos Norte,Region I,Barangay 7,,,,,,
,,67f3652456b1e991bd6b101e,0.0,18.167279,120.590666,San Nicolas,Ilocos Norte,Region I,Barangay 15,,,,,,
,,67f3652456b1e991bd6b101f,0.0,18.159073,120.595351,San Nicolas,Ilocos Norte,Region I,Barangay 2,,,,,,
,,67f3652456b1e991bd6b1020,0.0,18.06041,120.573582,Batac,Ilocos Norte,Region I,Barangay 21,,,,,,
,,67f3652456b1e991bd6b1021,0.0,18.063942,120.534743,Paoay,Ilocos Norte,Region I,Barangay 35,,,,,,
,,67f3652456b1e991bd6b1022,0.0,18.207194,120.587036,Laoag,Ilocos Norte,Region I,Barangay 41,,,,,,
,,67f3652456b1e991bd6b1023,0.0,18.188195,120.598735,Laoag,Ilocos Norte,Region I,Barangay 19,,,,,,
,,67f3652456b1e991bd6b1024,0.0,18.059439,120.560047,Batac,Ilocos Norte,Region I,Barangay 18,,,,,,
,,67f3652456b1e991bd6b1025,0.0,18.104884,120.716201,Dingras,Ilocos Norte,Region I,Barangay 46,,,,,,
,,67f3652456b1e991bd6b1026,0.0,18.059318,120.537768,Paoay,Ilocos Norte,Region I,Barangay 28,,,,,,
,,67f3652456b1e991bd6b1027,0.0,18.189024,120.585186,Laoag,Ilocos Norte,Region I,Barangay 25,,,,,,
,,67f3652456b1e991bd6b1028,0.0,18.193637,120.589408,Laoag,Ilocos Norte,Region I,Barangay 27,,,,,,
,,67f3652456b1e991bd6b1029,0.0,18.064436,120.533771,Paoay,Ilocos Norte,Region I,Barangay 14,,,,,,
,,67f3652456b1e991bd6b102a,0.0,18.097374,120.707637,Dingras,Ilocos Norte,Region I,Barangay 10,,,,,,
,,67f3652456b1e991bd6b102b,0.0,18.106036,120.70906,Dingras,Ilocos Norte,Region I,Barangay 10,,,,,,
,,67f3652456b1e991bd6b102c,0.0,18.157813,120.588802,San Nicolas,Ilocos Norte,Region I,Barangay 6,,,,,,
,,67f3652456b1e991bd6b102d,0.0,18.052804,120.530325,Paoay,Ilocos Norte,Region I,Barangay 42,,,,,,
,,67f3652456b1e991bd6b102e,0.0,18.205918,120.584188,Laoag,Ilocos Norte,Region I,Barangay 44,,,,,,
,,67f3652456b1e991bd6b102f,0.0,18.050879,120.562443,Batac,Ilocos Norte,Region I,Barangay 1,,,,,,
,,67f3652456b1e991bd6b1030,0.0,18.155397,120.595565,San Nicolas,Ilocos Norte,Region I,Barangay 45,,,,,,
,,67f3652456b1e991bd6b1031,0.0,18.195982,120.599203,Laoag,Ilocos Norte,Region I,Barangay 33,,,,,,
,,67f3652456b1e991bd6b1032,0.0,18.204252,120.602032,Laoag,Ilocos Norte,Region I,Barangay 40,,,,,,
,,67f3652456b1e991bd6b1033,0.0,18.061121,120.529137,Paoay,Ilocos Norte,Region I,Barangay 50,,,,,,
,,67f3652456b1e991bd6b1034,0.0,18.047363,120.566279,Batac,Ilocos Norte,Region I,Barangay 38,,,,,,
,,67f3652456b1e991bd6b1035,0.0,18.161207,120.590227,San Nicolas,Ilocos Norte,Region I,Barangay 24,,,,,,
,,67f3652456b1e991bd6b1036,0.0,18.057269,120.528468,Paoay,Ilocos Norte,Region I,Barangay 37,,,,,,
,,67f3652456b1e991bd6b1037,0.0,18.104077,120.706913,Dingras,Ilocos Norte,Region I,Barangay 26,,,,,,
,,67f3652456b1e991bd6b1038,0.0,18.053624,120.57081,Batac,Ilocos Norte,Region I,Barangay 24,,,,,,
,,67f3652456b1e991bd6b1039,0.0,18.059451,120.537735,Paoay,Ilocos Norte,Region I,Barangay 29,,,,,,
,,67f3652456b1e991bd6b103a,0.0,18.033386,120.73495,Bangui,Ilocos Norte,Region I,Barangay 24,,,,,,
,,67f3652456b1e991bd6b103b,0.0,18.0603,120.560249,Batac,Ilocos Norte,Region I,Barangay 21,,,,,,
,,67f3652456b1e991bd6b103c,0.0,18.104921,120.713176,Dingras,Ilocos Norte,Region I,Barangay 38,,,,,,
,,67f3652456b1e991bd6b103d,0.0,18.063581,120.573214,Batac,Ilocos Norte,Region I,Barangay 40,,,,,,
,,67f3652456b1e991bd6b103e,0.0,18.053608,120.532339,Paoay,Ilocos Norte,Region I,Barangay 11,,,,,,
,,67f3652456b1e991bd6b103f,0.0,18.066512,120.535389,Paoay,Ilocos Norte,Region I,Barangay 2,,,,,,
,,67f3652456b1e991bd6b1040,0.0,18.06247,120.564708,Batac,Ilocos Norte,Region I,Barangay 34,,,,,,
,,67f3652456b1e991bd6b1041,0.0,18.151515,120.586701,San Nicolas,Ilocos Norte,Region I,Barangay 7,,,,,,
,,67f3652456b1e991bd6b1042,0.0,18.198779,120.584166,Laoag,Ilocos Norte,Region I,Barangay 6,,,,,,
,,67f3652456b1e991bd6b1043,0.0,18.052171,120.598093,Sarrat,Ilocos Norte,Region I,Barangay 26,,,,,,
,,67f3652456b1e991bd6b1044,0.0,18.050028,120.571615,Batac,Ilocos Norte,Region I,Barangay 21,,,,,,
,,67f3652456b1e991bd6b1045,0.0,18.192786,120.59078,Laoag,Ilocos Norte,Region I,Barangay 5,,,,,,
,,67f3652456b1e991bd6b1046,0.0,18.056412,120.557014,Batac,Ilocos Norte,Region I,Barangay 29,,,,,,
,,67f3652456b1e991bd6b1047,0.0,18.071374,120.534033,Paoay,Ilocos Norte,Region I,Barangay 48,,,,,,
,,67f3652456b1e991bd6b1048,0.0,18.106587,120.718522,Burgos,Ilocos Norte,Region I,Barangay 47,,,,,,
,,67f3652456b1e991bd6b1049,0.0,18.055981,120.573793,Batac,Ilocos Norte,Region I,Barangay 24,,,,,,
,,67f3652456b1e991bd6b104a,0.0,18.188743,120.584796,Laoag,Ilocos Norte,Region I,Barangay 42,,,,,,
,,67f3652456b1e991bd6b104b,0.0,18.059955,120.525329,Paoay,Ilocos Norte,Region I,Barangay 34,,,,,,
,,67f3652456b1e991bd6b104c,0.0,18.060391,120.572294,Batac,Ilocos Norte,Region I,Barangay 21,,,,,,
,,67f3652456b1e991bd6b104d,0.0,18.109562,120.758422,Dumalneg,Ilocos Norte,Region I,Barangay 50,,,,,,
,,67f3652456b1e991bd6b104e,0.0,18.092564,120.70685,Dingras,Ilocos Norte,Region I,Barangay 31,,,,,,
,,67f3652456b1e991bd6b104f,0.0,18.128912,120.546029,Banna,Ilocos Norte,Region I,Barangay 15,,,,,,
,,67f3652456b1e991bd6b1050,0.0,18.096596,120.7092,Dingras,Ilocos Norte,Region I,Barangay 34,,,,,,
,,67f3652456b1e991bd6b1051,0.0,18.205499,120.599083,Laoag,Ilocos Norte,Region I,Barangay 25,,,,,,
,,67f3652456b1e991bd6b1052,0.0,18.20476,120.596619,Laoag,Ilocos Norte,Region I,Barangay 35,,,,,,
,,67f3652456b1e991bd6b1053,0.0,18.202112,120.585323,Laoag,Ilocos Norte,Region I,Barangay 22,,,,,,
,,67f3652456b1e991bd6b1054,0.0,18.069813,120.535958,Paoay,Ilocos Norte,Region I,Barangay 43,,,,,,
,,67f3652456b1e991bd6b1055,0.0,18.056437,120.569914,Batac,Ilocos Norte,Region I,Barangay 20,,,,,,
,,67f3652456b1e991bd6b1056,0.0,18.156449,120.586505,San Nicolas,Ilocos Norte,Region I,Barangay 32,,,,,,
,,67f3652456b1e991bd6b1057,0.0,18.058988,120.529862,Paoay,Ilocos Norte,Region I,Barangay 48,,,,,,
,,67f3652456b1e991bd6b1058,0.0,18.200699,120.599175,Laoag,Ilocos Norte,Region I,Barangay 35,,,,,,
,,67f3652456b1e991bd6b1059,0.0,18.189386,120.590991,Laoag,Ilocos Norte,Region I,Barangay 28,,,,,,
,,67f3652456b1e991bd6b105a,0.0,18.334533,120.737781,Carasi,Ilocos Norte,Region I,Barangay 30,,,,,,
,,67f3652456b1e991bd6b105b,0.0,18.051294,120.572374,Batac,Ilocos Norte,Region I,Barangay 8,,,,,,
,,67f3652456b1e991bd6b105c,0.0,18.20337,120.601164,Laoag,Ilocos Norte,Region I,Barangay 2,,,,,,
,,67f3652456b1e991bd6b105d,0.0,18.091377,120.712611,Dingras,Ilocos Norte,Region I,Barangay 50,,,,,,
,,67f3652456b1e991bd6b105e,0.0,18.200569,120.681827,Vintar,Ilocos Norte,Region I,Barangay 4,,,,,,
,,67f3652456b1e991bd6b105f,0.0,18.297314,120.846702,Pinili,Ilocos Norte,Region I,Barangay 47,,,,,,
,,67f3652456b1e991bd6b1060,0.0,18.055951,120.55904,Batac,Ilocos Norte,Region I,Barangay 44,,,,,,
,,67f3652456b1e991bd6b1061,0.0,18.054825,120.533185,Paoay,Ilocos Norte,Region I,Barangay 27,,,,,,
,,67f3652456b1e991bd6b1062,0.0,18.258391,120.684844,Vintar,Ilocos Norte,Region I,Barangay 38,,,,,,
,,67f3652456b1e991bd6b1063,0.0,18.095244,120.707672,Dingras,Ilocos Norte,Region I,Barangay 21,,,,,,
,,67f3652456b1e991bd6b1064,0.0,18.189738,120.584253,Laoag,Ilocos Norte,Region I,Barangay 10,,,,,,
,,67f3652456b1e991bd6b1065,0.0,18.553395,120.829711,Solsona,Ilocos Norte,Region I,Barangay 45,,,,,,
,,67f3652456b1e991bd6b1066,0.0,18.199795,120.601953,Laoag,Ilocos Norte,Region I,Barangay 31,,,,,,
,,67f3652456b1e991bd6b1067,0.0,17.978284,120.793999,Marcos,Ilocos Norte,Region I,Barangay 1,,,,,,
,,67f3652456b1e991bd6b1068,0.0,18.093709,120.709951,Dingras,Ilocos Norte,Region I,Barangay 5,,,,,,
,,67f3652456b1e991bd6b1069,0.0,18.170674,120.589768,San Nicolas,Ilocos Norte,Region I,Barangay 49,,,,,,
,,67f3652456b1e991bd6b106a,0.0,18.058987,120.531552,Paoay,Ilocos Norte,Region I,Barangay 48,,,,,,
,,67f3652456b1e991bd6b106b,0.0,18.487817,120.652452,Currimao,Ilocos Norte,Region I,Barangay 38,,,,,,
,,67f3652456b1e991bd6b106c,0.0,18.238377,120.58024,Pinili,Ilocos Norte,Region I,Barangay 16,,,,,,
,,67f3652456b1e991bd6b106d,0.0,18.204205,120.589602,Laoag,Ilocos Norte,Region I,Barangay 47,,,,,,
,,67f3652456b1e991bd6b106e,0.0,18.190582,120.598925,Laoag,Ilocos Norte,Region I,Barangay 33,,,,,,
,,67f3652456b1e991bd6b106f,0.0,18.049598,120.57099,Batac,Ilocos Norte,Region I,Barangay 4,,,,,,
,,67f3652456b1e991bd6b1070,0.0,18.195375,120.597641,Laoag,Ilocos Norte,Region I,Barangay 38,,,,,,
,,67f3652456b1e991bd6b1071,0.0,18.201216,120.598739,Laoag,Ilocos Norte,Region I,Barangay 35,,,,,,
,,67f3652456b1e991bd6b1072,0.0,18.199074,120.586658,Laoag,Ilocos Norte,Region I,Barangay 29,,,,,,
,,67f3652456b1e991bd6b1073,0.0,18.052091,120.535138,Paoay,Ilocos Norte,Region I,Barangay 29,,,,,,
,,67f3652456b1e991bd6b1074,0.0,18.128912,120.546029,Banna,Ilocos Norte,Region I,Barangay 15,,,,,,
,,67f3652456b1e991bd6b1075,0.0,18.278759,120.664129,Pinili,Ilocos Norte,Region I,Barangay 34,,,,,,
,,67f3652456b1e991bd6b1076,0.0,18.104077,120.706913,Dingras,Ilocos Norte,Region I,Barangay 26,,,,,,
,,67f3652456b1e991bd6b1077,0.0,18.162196,120.590827,San Nicolas,Ilocos Norte,Region I,Barangay 42,,,,,,
,,67f3652456b1e991bd6b1078,0.0,18.342226,120.851734,Pasuquin,Ilocos Norte,Region I,Barangay 20,,,,,,
,,67f3652456b1e991bd6b1079,0.0,18.201365,120.601738,Laoag,Ilocos Norte,Region I,Barangay 39,,,,,,
,,67f3652456b1e991bd6b107a,0.0,18.26438,120.779456,Carasi,Ilocos Norte,Region I,Barangay 36,,,,,,
,,67f3652456b1e991bd6b107b,0.0,18.162312,120.605143,San Nicolas,Ilocos Norte,Region I,Barangay 23,,,,,,
,,67f3652456b1e991bd6b107c,0.0,18.586068,120.723446,Pasuquin,Ilocos Norte,Region I,Barangay 17,,,,,,
,,67f3652456b1e991bd6b107d,0.0,18.090982,120.717778,Dingras,Ilocos Norte,Region I,Barangay 47,,,,,,
,,67f3652456b1e991bd6b107e,0.0,18.105689,120.709923,Dingras,Ilocos Norte,Region I,Barangay 35,,,,,,
,,67f3652456b1e991bd6b107f,0.0,18.059396,120.572459,Batac,Ilocos Norte,Region I,Barangay 7,,,,,,
,,67f3652456b1e991bd6b1080,0.0,18.107681,120.71602,Dingras,Ilocos Norte,Region I,Barangay 7,,,,,,
,,67f3652456b1e991bd6b1081,0.0,18.168612,120.602725,San Nicolas,Ilocos Norte,Region I,Barangay 11,,,,,,
,,67f3652456b1e991bd6b1082,0.0,18.101012,120.709307,Dingras,Ilocos Norte,Region I,Barangay 6,,,,,,
,,67f3652456b1e991bd6b1083,0.0,18.269454,120.601781,Pagudpud,Ilocos Norte,Region I,Barangay 24,,,,,,
,,67f3652456b1e991bd6b1084,0.0,18.2531,120.84352,Pasuquin,Ilocos Norte,Region I,Barangay 24,,,,,,
,,67f3652456b1e991bd6b1085,0.0,18.488236,120.765603,Pinili,Ilocos Norte,Region I,Barangay 27,,,,,,
,,67f3652456b1e991bd6b1086,0.0,18.167013,120.598217,San Nicolas,Ilocos Norte,Region I,Barangay 44,,,,,,
,,67f3652456b1e991bd6b1087,0.0,18.431132,120.738857,Currimao,Ilocos Norte,Region I,Barangay 31,,,,,,
,,67f3652456b1e991bd6b1088,0.0,18.20346,120.600794,Laoag,Ilocos Norte,Region I,Barangay 19,,,,,,
,,67f3652456b1e991bd6b1089,0.0,18.063178,120.556938,Batac,Ilocos Norte,Region I,Barangay 27,,,,,,
,,67f3652456b1e991bd6b108a,0.0,18.049523,120.54708,Marcos,Ilocos Norte,Region I,Barangay 8,,,,,,
,,67f3652456b1e991bd6b108b,0.0,18.057513,120.558022,Batac,Ilocos Norte,Region I,Barangay 9,,,,,,
,,67f3652456b1e991bd6b108c,0.0,18.059201,120.55732,Batac,Ilocos Norte,Region I,Barangay 40,,,,,,
,,67f3652456b1e991bd6b108d,0.0,18.062853,120.520388,Paoay,Ilocos Norte,Region I,Barangay 22,,,,,,
,,67f3652456b1e991bd6b108e,0.0,18.400799,120.615398,Banna,Ilocos Norte,Region I,Barangay 39,,,,,,
,,67f3652456b1e991bd6b108f,0.0,18.53394,120.856121,Nueva Era,Ilocos Norte,Region I,Barangay 29,,,,,,
,,67f3652456b1e991bd6b1090,0.0,18.069433,120.531436,Paoay,Ilocos Norte,Region I,Barangay 2,,,,,,
,,67f3652456b1e991bd6b1091,0.0,18.060077,120.521345,Paoay,Ilocos Norte,Region I,Barangay 44,,,,,,
,,67f3652456b1e991bd6b1092,0.0,18.096076,120.820086,Marcos,Ilocos Norte,Region I,Barangay 28,,,,,,
,,67f3652456b1e991bd6b1093,0.0,18.055449,120.554797,Batac,Ilocos Norte,Region I,Barangay 3,,,,,,
,,67f3652456b1e991bd6b1094,0.0,17.956335,120.878852,Banna,Ilocos Norte,Region I,Barangay 11,,,,,,
,,67f3652456b1e991bd6b1095,0.0,18.19231,120.589063,Laoag,Ilocos Norte,Region I,Barangay 33,,,,,,
,,67f3652456b1e991bd6b1096,0.0,18.202401,120.598199,Laoag,Ilocos Norte,Region I,Barangay 27,,,,,,
,,67f3652456b1e991bd6b1097,0.0,18.045421,120.585494,Pasuquin,Ilocos Norte,Region I,Barangay 35,,,,,,
,,67f3652456b1e991bd6b1098,0.0,18.06183,120.520148,Paoay,Ilocos Norte,Region I,Barangay 31,,,,,,
,,67f3652456b1e991bd6b1099,0.0,18.046518,120.572074,Batac,Ilocos Norte,Region I,Barangay 40,,,,,,
,,67f3652456b1e991bd6b109a,0.0,18.440383,120.823302,Solsona,Ilocos Norte,Region I,Barangay 14,,,,,,
,,67f3652456b1e991bd6b109b,0.0,17.944153,120.523189,Currimao,Ilocos Norte,Region I,Barangay 16,,,,,,
,,67f3652456b1e991bd6b109c,0.0,18.159809,120.587084,San Nicolas,Ilocos Norte,Region I,Barangay 2,,,,,,
,,67f3652456b1e991bd6b109d,0.0,18.205031,120.583252,Laoag,Ilocos Norte,Region I,Barangay 2,,,,,,
,,67f3652456b1e991bd6b109e,0.0,18.051794,120.561235,Batac,Ilocos Norte,Region I,Barangay 30,,,,,,
,,67f3652456b1e991bd6b109f,0.0,18.041527,120.521975,Bacarra,Ilocos Norte,Region I,Barangay 22,,,,,,
,,67f3652456b1e991bd6b10a0,0.0,18.201065,120.599402,Laoag,Ilocos Norte,Region I,Barangay 28,,,,,,
,,67f3652456b1e991bd6b10a1,0.0,18.090536,120.721123,Dingras,Ilocos Norte,Region I,Barangay 43,,,,,,
,,67f3652456b1e991bd6b10a2,0.0,18.191584,120.594515,Laoag,Ilocos Norte,Region I,Barangay 6,,,,,,
,,67f3652456b1e991bd6b10a3,0.0,18.051612,120.559004,Batac,Ilocos Norte,Region I,Barangay 21,,,,,,
,,67f3652456b1e991bd6b10a4,0.0,18.164561,120.601098,San Nicolas,Ilocos Norte,Region I,Barangay 30,,,,,,
,,67f3652456b1e991bd6b10a5,0.0,17.902267,120.62399,Dumalneg,Ilocos Norte,Region I,Barangay 46,,,,,,
,,67f3652456b1e991bd6b10a6,0.0,18.050088,120.56081,Batac,Ilocos Norte,Region I,Barangay 12,,,,,,
,,67f3652456b1e991bd6b10a7,0.0,17.953975,120.868821,Sarrat,Ilocos Norte,Region I,Barangay 19,,,,,,
,,67f3652456b1e991bd6b10a8,0.0,18.094451,120.717697,Dingras,Ilocos Norte,Region I,Barangay 11,,,,,,
,,67f3652456b1e991bd6b10a9,0.0,18.101094,120.71368,Sarrat,Ilocos Norte,Region I,Barangay 19,,,,,,
,,67f3652456b1e991bd6b10aa,0.0,18.208033,120.708719,Dumalneg,Ilocos Norte,Region I,Barangay 12,,,,,,
,,67f3652456b1e991bd6b10ab,0.0,18.445047,120.856594,Vintar,Ilocos Norte,Region I,Barangay 44,,,,,,
,,67f3652456b1e991bd6b10ac,0.0,18.098069,120.711687,Dingras,Ilocos Norte,Region I,Barangay 3,,,,,,
,,67f3652456b1e991bd6b10ad,0.0,18.161421,120.587095,San Nicolas,Ilocos Norte,Region I,Barangay 6,,,,,,
,,67f3652456b1e991bd6b10ae,0.0,18.155713,120.59216,San Nicolas,Ilocos Norte,Region I,Barangay 32,,,,,,
,,67f3652456b1e991bd6b10af,0.0,18.070478,120.529916,Paoay,Ilocos Norte,Region I,Barangay 39,,,,,,
,,67f3652456b1e991bd6b10b0,0.0,18.20461,120.587551,Laoag,Ilocos Norte,Region I,Barangay 1,,,,,,
,,67f3652456b1e991bd6b10b1,0.0,18.097392,120.716829,Dingras,Ilocos Norte,Region I,Barangay 7,,,,,,
,,67f3652456b1e991bd6b10b2,0.0,18.067537,120.527355,Paoay,Ilocos Norte,Region I,Barangay 23,,,,,,
,,67f3652456b1e991bd6b10b3,0.0,18.198877,120.583591,Laoag,Ilocos Norte,Region I,Barangay 10,,,,,,
,,67f3652456b1e991bd6b10b4,0.0,18.417766,120.771999,Badoc,Ilocos Norte,Region I,Barangay 24,,,,,,
,,67f3652456b1e991bd6b10b5,0.0,18.317885,120.780725,Burgos,Ilocos Norte,Region I,Barangay 28,,,,,,
,,67f3652456b1e991bd6b10b6,0.0,18.586365,120.762508,Badoc,Ilocos Norte,Region I,Barangay 45,,,,,,
,,67f3652456b1e991bd6b10b7,0.0,18.048993,120.558744,Batac,Ilocos Norte,Region I,Barangay 1,,,,,,
,,67f3652456b1e991bd6b10b8,0.0,18.057268,120.528622,Paoay,Ilocos Norte,Region I,Barangay 32,,,,,,
,,67f3652456b1e991bd6b10b9,0.0,18.155397,120.595565,San Nicolas,Ilocos Norte,Region I,Barangay 45,,,,,,
,,67f3652456b1e991bd6b10ba,0.0,18.106658,120.721715,Dingras,Ilocos Norte,Region I,Barangay 16,,,,,,
,,67f3652456b1e991bd6b10bb,0.0,18.504055,120.886432,Marcos,Ilocos Norte,Region I,Barangay 36,,,,,,
,,67f3652456b1e991bd6b10bc,0.0,18.190751,120.596956,Laoag,Ilocos Norte,Region I,Barangay 24,,,,,,
,,67f3652456b1e991bd6b10bd,0.0,18.513331,120.852087,Marcos,Ilocos Norte,Region I,Barangay 41,,,,,,
,,67f3652456b1e991bd6b10be,0.0,18.059318,120.537768,Paoay,Ilocos Norte,Region I,Barangay 28,,,,,,
,,67f3652456b1e991bd6b10bf,0.0,18.157524,120.587448,San Nicolas,Ilocos Norte,Region I,Barangay 34,,,,,,
,,67f3652456b1e991bd6b10c0,0.0,18.092564,120.70685,Dingras,Ilocos Norte,Region I,Barangay 31,,,,,,
,,67f3652456b1e991bd6b10c1,0.0,18.056408,120.564517,Batac,Ilocos Norte,Region I,Barangay 9,,,,,,
,,67f3652456b1e991bd6b10c2,0.0,18.364492,120.859072,Adams,Ilocos Norte,Region I,Barangay 24,,,,,,
,,67f3652456b1e991bd6b10c3,0.0,18.063307,120.537642,Paoay,Ilocos Norte,Region I,Barangay 17,,,,,,
,,67f3652456b1e991bd6b10c4,0.0,18.362238,120.824331,Banna,Ilocos Norte,Region I,Barangay 49,,,,,,
,,67f3652456b1e991bd6b10c5,0.0,18.071374,120.534033,Paoay,Ilocos Norte,Region I,Barangay 48,,,,,,
,,67f3652456b1e991bd6b10c6,0.0,18.067914,120.5227,Paoay,Ilocos Norte,Region I,Barangay 16,,,,,,
,,67f3652456b1e991bd6b10c7,0.0,18.047284,120.558758,Batac,Ilocos Norte,Region I,Barangay 3,,,,,,
,,67f3652456b1e991bd6b10c8,0.0,18.201902,120.593632,Laoag,Ilocos Norte,Region I,Barangay 29,,,,,,
,,67f3652456b1e991bd6b10c9,0.0,18.202357,120.585571,Laoag,Ilocos Norte,Region I,Barangay 43,,,,,,
,,67f3652456b1e991bd6b10ca,0.0,18.153766,120.590616,San Nicolas,Ilocos Norte,Region I,Barangay 14,,,,,,
,,67f3652456b1e991bd6b10cb,0.0,18.064463,120.557901,Batac,Ilocos Norte,Region I,Barangay 34,,,,,,
,,67f3652456b1e991bd6b10cc,0.0,18.060324,120.529485,Paoay,Ilocos Norte,Region I,Barangay 35,,,,,,
,,67f3652456b1e991bd6b10cd,0.0,18.546538,120.521649,Banna,Ilocos Norte,Region I,Barangay 3,,,,,,
,,67f3652456b1e991bd6b10ce,0.0,18.055268,120.538229,Paoay,Ilocos Norte,Region I,Barangay 36,,,,,,
,,67f3652456b1e991bd6b10cf,0.0,18.242545,120.734399,Piddig,Ilocos Norte,Region I,Barangay 3,,,,,,
,,67f3652456b1e991bd6b10d0,0.0,18.160258,120.601088,San Nicolas,Ilocos Norte,Region I,Barangay 30,,,,,,
,,67f3652456b1e991bd6b10d1,0.0,18.403736,120.59712,Bacarra,Ilocos Norte,Region I,Barangay 15,,,,,,
,,67f3652456b1e991bd6b10d2,0.0,18.103241,120.708993,Dingras,Ilocos Norte,Region I,Barangay 13,,,,,,
,,67f3652456b1e991bd6b10d3,0.0,17.924322,120.59416,Badoc,Ilocos Norte,Region I,Barangay 11,,,,,,
,,67f3652456b1e991bd6b10d4,0.0,18.058988,120.529862,Paoay,Ilocos Norte,Region I,Barangay 48,,,,,,
,,67f3652456b1e991bd6b10d5,0.0,18.542248,120.570928,Bacarra,Ilocos Norte,Region I,Barangay 25,,,,,,
,,67f3652456b1e991bd6b10d6,0.0,18.098656,120.712554,Dingras,Ilocos Norte,Region I,Barangay 31,,,,,,
,,67f3652456b1e991bd6b10d7,0.0,18.069791,120.527769,Paoay,Ilocos Norte,Region I,Barangay 1,,,,,,
,,67f3652456b1e991bd6b10d8,0.0,18.193313,120.59442,Laoag,Ilocos Norte,Region I,Barangay 31,,,,,,
,,67f3652456b1e991bd6b10d9,0.0,18.288252,120.807812,Solsona,Ilocos Norte,Region I,Barangay 22,,,,,,
,,67f3652456b1e991bd6b10da,0.0,18.1922,120.746752,Carasi,Ilocos Norte,Region I,Barangay 15,,,,,,
,,67f3652456b1e991bd6b10db,0.0,17.973586,120.592915,Nueva Era,Ilocos Norte,Region I,Barangay 29,,,,,,
,,67f3652456b1e991bd6b10dc,0.0,18.075172,120.85063,Marcos,Ilocos Norte,Region I,Barangay 19,,,,,,
,,67f3652456b1e991bd6b10dd,0.0,18.066165,120.524732,Paoay,Ilocos Norte,Region I,Barangay 9,,,,,,
,,67f3652456b1e991bd6b10de,0.0,18.059439,120.560047,Batac,Ilocos Norte,Region I,Barangay 18,,,,,,
,,67f3652456b1e991bd6b10df,0.0,18.156897,120.876656,Adams,Ilocos Norte,Region I,Barangay 36,,,,,,
,,67f3652456b1e991bd6b10e0,0.0,18.102616,120.718694,Dingras,Ilocos Norte,Region I,Barangay 21,,,,,,
,,67f3652456b1e991bd6b10e1,0.0,18.058101,120.534658,Paoay,Ilocos Norte,Region I,Barangay 46,,,,,,
,,67f3652456b1e991bd6b10e2,0.0,18.5598,120.876784,Banna,Ilocos Norte,Region I,Barangay 44,,,,,,
,,67f3652456b1e991bd6b10e3,0.0,18.05514,120.567259,Batac,Ilocos Norte,Region I,Barangay 12,,,,,,
,,67f3652456b1e991bd6b10e4,0.0,18.408119,120.507562,Dumalneg,Ilocos Norte,Region I,Barangay 14,,,,,,
,,67f3652456b1e991bd6b10e5,0.0,18.056412,120.557014,Batac,Ilocos Norte,Region I,Barangay 29,,,,,,
,,67f3652456b1e991bd6b10e6,0.0,18.059696,120.533801,Paoay,Ilocos Norte,Region I,Barangay 9,,,,,,
,,67f3652456b1e991bd6b10e7,0.0,18.218656,120.657575,Adams,Ilocos Norte,Region I,Barangay 12,,,,,,
,,67f3652456b1e991bd6b10e8,0.0,18.227134,120.735926,Piddig,Ilocos Norte,Region I,Barangay 33,,,,,,
,,67f3652456b1e991bd6b10e9,0.0,18.051249,120.572153,Batac,Ilocos Norte,Region I,Barangay 45,,,,,,
,,67f3652456b1e991bd6b10ea,0.0,18.207574,120.58609,Laoag,Ilocos Norte,Region I,Barangay 38,,,,,,
,,67f3652456b1e991bd6b10eb,0.0,17.922249,120.693411,Burgos,Ilocos Norte,Region I,Barangay 30,,,,,,
,,67f3652456b1e991bd6b10ec,0.0,18.200695,120.590918,Laoag,Ilocos Norte,Region I,Barangay 31,,,,,,
,,67f3652456b1e991bd6b10ed,0.0,18.102683,120.721897,Dingras,Ilocos Norte,Region I,Barangay 21,,,,,,
,,67f3652456b1e991bd6b10ee,0.0,18.057974,120.563459,Batac,Ilocos Norte,Region I,Barangay 28,,,,,,
,,67f3652456b1e991bd6b10ef,0.0,18.56793,120.592713,Vintar,Ilocos Norte,Region I,Barangay 39,,,,,,
,,67f3652456b1e991bd6b10f0,0.0,18.104374,120.716725,Dingras,Ilocos Norte,Region I,Barangay 38,,,,,,
,,67f3652456b1e991bd6b10f1,0.0,18.049026,120.563611,Batac,Ilocos Norte,Region I,Barangay 40,,,,,,
,,67f3652456b1e991bd6b10f2,0.0,18.031094,120.516861,Solsona,Ilocos Norte,Region I,Barangay 43,,,,,,
,,67f3652456b1e991bd6b10f3,0.0,18.096375,120.71653,Dingras,Ilocos Norte,Region I,Barangay 8,,,,,,
,,67f3652456b1e991bd6b10f4,0.0,18.218548,120.813261,Burgos,Ilocos Norte,Region I,Barangay 26,,,,,,
,,67f3652456b1e991bd6b10f5,0.0,18.07001,120.524896,Paoay,Ilocos Norte,Region I,Barangay 48,,,,,,
,,67f3652456b1e991bd6b10f6,0.0,18.188699,120.597107,Laoag,Ilocos Norte,Region I,Barangay 9,,,,,,
,,67f3652456b1e991bd6b10f7,0.0,18.105199,120.716996,Dingras,Ilocos Norte,Region I,Barangay 38,,,,,,
,,67f3652456b1e991bd6b10f8,0.0,18.169222,120.601176,San Nicolas,Ilocos Norte,Region I,Barangay 27,,,,,,
,,67f3652456b1e991bd6b10f9,0.0,18.05565,120.56397,Batac,Ilocos Norte,Region I,Barangay 16,,,,,,
,,67f3652456b1e991bd6b10fa,0.0,18.206378,120.599491,Laoag,Ilocos Norte,Region I,Barangay 8,,,,,,
,,67f3652456b1e991bd6b10fb,0.0,18.205209,120.589946,Laoag,Ilocos Norte,Region I,Barangay 21,,,,,,
,,67f3652456b1e991bd6b10fc,0.0,18.124556,120.510554,Pinili,Ilocos Norte,Region I,Barangay 27,,,,,,
,,67f3652456b1e991bd6b10fd,0.0,18.385069,120.623114,Burgos,Ilocos Norte,Region I,Barangay 35,,,,,,
,,67f3652456b1e991bd6b10fe,0.0,18.062058,120.560125,Batac,Ilocos Norte,Region I,Barangay 38,,,,,,
,,67f3652456b1e991bd6b10ff,0.0,18.061531,120.558994,Batac,Ilocos Norte,Region I,Barangay 22,,,,,,
,,67f3652456b1e991bd6b1100,0.0,18.091384,120.715985,Dingras,Ilocos Norte,Region I,Barangay 4,,,,,,
,,67f3652456b1e991bd6b1101,0.0,18.047363,120.566279,Batac,Ilocos Norte,Region I,Barangay 38,,,,,,
,,67f3652456b1e991bd6b1102,0.0,18.055249,120.558533,Batac,Ilocos Norte,Region I,Barangay 21,,,,,,
,,67f3652456b1e991bd6b1103,0.0,18.053624,120.57081,Batac,Ilocos Norte,Region I,Barangay 24,,,,,,
,,67f3652456b1e991bd6b1104,0.0,18.189073,120.586298,Laoag,Ilocos Norte,Region I,Barangay 42,,,,,,
,,67f3652456b1e991bd6b1105,0.0,18.411915,120.606251,Banna,Ilocos Norte,Region I,Barangay 13,,,,,,
,,67f3652456b1e991bd6b1106,0.0,18.045835,120.573467,Batac,Ilocos Norte,Region I,Barangay 50,,,,,,
,,67f3652456b1e991bd6b1107,0.0,18.049328,120.569134,Batac,Ilocos Norte,Region I,Barangay 10,,,,,,
,,67f3652456b1e991bd6b1108,0.0,18.056609,120.559359,Batac,Ilocos Norte,Region I,Barangay 13,,,,,,
,,67f3652456b1e991bd6b1109,0.0,18.052326,120.563896,Batac,Ilocos Norte,Region I,Barangay 12,,,,,,
,,67f3652456b1e991bd6b110a,0.0,18.166675,120.597959,San Nicolas,Ilocos Norte,Region I,Barangay 16,,,,,,
,,67f3652456b1e991bd6b110b,0.0,18.155711,120.601338,San Nicolas,Ilocos Norte,Region I,Barangay 20,,,,,,
,,67f3652456b1e991bd6b110c,0.0,18.057506,120.537142,Paoay,Ilocos Norte,Region I,Barangay 31,,,,,,
,,67f3652456b1e991bd6b110d,0.0,18.207713,120.599272,Laoag,Ilocos Norte,Region I,Barangay 13,,,,,,
,,67f3652456b1e991bd6b110e,0.0,18.096976,120.703661,Dingras,Ilocos Norte,Region I,Barangay 9,,,,,,
,,67f3652456b1e991bd6b110f,0.0,18.105346,120.7156,Dingras,Ilocos Norte,Region I,Barangay 2,,,,,,
,,67f3652456b1e991bd6b1110,0.0,18.061587,120.556192,Batac,Ilocos Norte,Region I,Barangay 16,,,,,,
,,67f3652456b1e991bd6b1111,0.0,18.054769,120.527605,Paoay,Ilocos Norte,Region I,Barangay 43,,,,,,
,,67f3652456b1e991bd6b1112,0.0,18.189024,120.585186,Laoag,Ilocos Norte,Region I,Barangay 25,,,,,,
,,67f3652456b1e991bd6b1113,0.0,18.15956,120.587667,San Nicolas,Ilocos Norte,Region I,Barangay 46,,,,,,
,,67f3652456b1e991bd6b1114,0.0,18.050856,120.779206,Dumalneg,Ilocos Norte,Region I,Barangay 48,,,,,,
,,67f3652456b1e991bd6b1115,0.0,18.585668,120.726501,Sarrat,Ilocos Norte,Region I,Barangay 43,,,,,,
,,67f3652456b1e991bd6b1116,0.0,18.058048,120.539264,Paoay,Ilocos Norte,Region I,Barangay 33,,,,,,
,,67f3652456b1e991bd6b1117,0.0,18.106036,120.70906,Dingras,Ilocos Norte,Region I,Barangay 10,,,,,,
,,67f3652456b1e991bd6b1118,0.0,18.089938,120.808118,Carasi,Ilocos Norte,Region I,Barangay 29,,,,,,
,,67f3652456b1e991bd6b1119,0.0,17.936734,120.620612,Pinili,Ilocos Norte,Region I,Barangay 35,,,,,,
,,67f3652456b1e991bd6b111a,0.0,18.157889,120.597342,San Nicolas,Ilocos Norte,Region I,Barangay 10,,,,,,
,,67f3652456b1e991bd6b111b,0.0,17.946515,120.515229,Adams,Ilocos Norte,Region I,Barangay 15,,,,,,
,,67f3652456b1e991bd6b111c,0.0,18.188684,120.589374,Laoag,Ilocos Norte,Region I,Barangay 19,,,,,,
,,67f3652456b1e991bd6b111d,0.0,18.050377,120.556731,Batac,Ilocos Norte,Region I,Barangay 37,,,,,,
,,67f3652456b1e991bd6b111e,0.0,18.001335,120.871992,Banna,Ilocos Norte,Region I,Barangay 23,,,,,,
,,67f3652456b1e991bd6b111f,0.0,18.261437,120.873053,Sarrat,Ilocos Norte,Region I,Barangay 21,,,,,,
,,67f3652456b1e991bd6b1120,0.0,18.097104,120.70383,Dingras,Ilocos Norte,Region I,Barangay 42,,,,,,
,,67f3652456b1e991bd6b1121,0.0,18.059285,120.568252,Batac,Ilocos Norte,Region I,Barangay 49,,,,,,
,,67f3652456b1e991bd6b1122,0.0,18.160278,120.600179,San Nicolas,Ilocos Norte,Region I,Barangay 16,,,,,,
,,67f3652456b1e991bd6b1123,0.0,17.943573,120.726311,Solsona,Ilocos Norte,Region I,Barangay 50,,,,,,
,,67f3652456b1e991bd6b1124,0.0,18.056984,120.563667,Batac,Ilocos Norte,Region I,Barangay 6,,,,,,
,,67f3652456b1e991bd6b1125,0.0,18.097308,120.645138,Bangui,Ilocos Norte,Region I,Barangay 32,,,,,,
,,67f3652456b1e991bd6b1126,0.0,18.162118,120.603549,San Nicolas,Ilocos Norte,Region I,Barangay 31,,,,,,
,,67f3652456b1e991bd6b1127,0.0,18.156449,120.586505,San Nicolas,Ilocos Norte,Region I,Barangay 32,,,,,,
,,67f3652456b1e991bd6b1128,0.0,18.322934,120.589636,Solsona,Ilocos Norte,Region I,Barangay 13,,,,,,
,,67f3652456b1e991bd6b1129,0.0,18.410508,120.637251,Vintar,Ilocos Norte,Region I,Barangay 36,,,,,,
,,67f3652456b1e991bd6b112a,0.0,18.20779,120.586419,Laoag,Ilocos Norte,Region I,Barangay 25,,,,,,
,,67f3652456b1e991bd6b112b,0.0,18.063706,120.569411,Batac,Ilocos Norte,Region I,Barangay 32,,,,,,
,,67f3652456b1e991bd6b112c,0.0,18.294335,120.809775,Bacarra,Ilocos Norte,Region I,Barangay 28,,,,,,
,,67f3652456b1e991bd6b112d,0.0,18.406974,120.510216,Pagudpud,Ilocos Norte,Region I,Barangay 27,,,,,,
,,67f3652456b1e991bd6b112e,0.0,18.046907,120.56154,Batac,Ilocos Norte,Region I,Barangay 32,,,,,,
,,67f3652456b1e991bd6b112f,0.0,18.182318,120.862896,Solsona,Ilocos Norte,Region I,Barangay 21,,,,,,
,,67f3652456b1e991bd6b1130,0.0,18.427981,120.703873,Bacarra,Ilocos Norte,Region I,Barangay 46,,,,,,
,,67f3652456b1e991bd6b1131,0.0,18.169394,120.59013,San Nicolas,Ilocos Norte,Region I,Barangay 9,,,,,,
,,67f3652456b1e991bd6b1132,0.0,18.094934,120.721639,Dingras,Ilocos Norte,Region I,Barangay 8,,,,,,
,,67f3652456b1e991bd6b1133,0.0,18.055209,120.5593,Batac,Ilocos Norte,Region I,Barangay 16,,,,,,
,,67f3652456b1e991bd6b1134,0.0,18.093257,120.715731,Dingras,Ilocos Norte,Region I,Barangay 21,,,,,,
,,67f3652456b1e991bd6b1135,0.0,18.07036,120.521082,Paoay,Ilocos Norte,Region I,Barangay 13,,,,,,
,,67f3652456b1e991bd6b1136,0.0,18.007214,120.872183,Nueva Era,Ilocos Norte,Region I,Barangay 27,,,,,,
,,67f3652456b1e991bd6b1137,0.0,18.09238,120.717054,Bacarra,Ilocos Norte,Region I,Barangay 35,,,,,,
,,67f3652456b1e991bd6b1138,0.0,18.096935,120.719397,Dingras,Ilocos Norte,Region I,Barangay 9,,,,,,
,,67f3652456b1e991bd6b1139,0.0,18.202112,120.585323,Laoag,Ilocos Norte,Region I,Barangay 22,,,,,,
,,67f3652456b1e991bd6b113a,0.0,18.193973,120.589613,Laoag,Ilocos Norte,Region I,Barangay 18,,,,,,
,,67f3652456b1e991bd6b113b,0.0,18.154723,120.604616,San Nicolas,Ilocos Norte,Region I,Barangay 25,,,,,,
,,67f3652456b1e991bd6b113c,0.0,18.10242,120.703341,Dingras,Ilocos Norte,Region I,Barangay 6,,,,,,
,,67f3652456b1e991bd6b113d,0.0,18.207321,120.585818,Laoag,Ilocos Norte,Region I,Barangay 19,,,,,,
,,67f3652456b1e991bd6b113e,0.0,18.097526,120.714022,Dingras,Ilocos Norte,Region I,Barangay 41,,,,,,
,,67f3652456b1e991bd6b113f,0.0,18.104884,120.716201,Dingras,Ilocos Norte,Region I,Barangay 46,,,,,,
,,67f3652456b1e991bd6b1140,0.0,18.064424,120.521235,Paoay,Ilocos Norte,Region I,Barangay 34,,,,,,
,,67f3652456b1e991bd6b1141,0.0,18.164468,120.594291,San Nicolas,Ilocos Norte,Region I,Barangay 39,,,,,,
,,67f3652456b1e991bd6b1142,0.0,18.391918,120.643202,Banna,Ilocos Norte,Region I,Barangay 38,,,,,,
,,67f3652456b1e991bd6b1143,0.0,18.057728,120.534608,Paoay,Ilocos Norte,Region I,Barangay 17,,,,,,
,,67f3652456b1e991bd6b1144,0.0,18.14259,120.848748,Pasuquin,Ilocos Norte,Region I,Barangay 13,,,,,,
,,67f3652456b1e991bd6b1145,0.0,18.064233,120.566092,Batac,Ilocos Norte,Region I,Barangay 4,,,,,,
,,67f3652456b1e991bd6b1146,0.0,18.069628,120.528767,Paoay,Ilocos Norte,Region I,Barangay 24,,,,,,
,,67f3652456b1e991bd6b1147,0.0,18.586948,120.708421,Currimao,Ilocos Norte,Region I,Barangay 9,,,,,,
,,67f3652456b1e991bd6b1148,0.0,18.070529,120.523224,Paoay,Ilocos Norte,Region I,Barangay 25,,,,,,
,,67f3652456b1e991bd6b1149,0.0,18.053512,120.559491,Batac,Ilocos Norte,Region I,Barangay 38,,,,,,
,,67f3652456b1e991bd6b114a,0.0,18.06286,120.563567,Batac,Ilocos Norte,Region I,Barangay 33,,,,,,
,,67f3652456b1e991bd6b114b,0.0,18.249927,120.765105,Vintar,Ilocos Norte,Region I,Barangay 28,,,,,,
,,67f3652456b1e991bd6b114c,0.0,18.045153,120.688699,Nueva Era,Ilocos Norte,Region I,Barangay 18,,,,,,
,,67f3652456b1e991bd6b114d,0.0,18.071111,120.537835,Paoay,Ilocos Norte,Region I,Barangay 46,,,,,,
,,67f3652456b1e991bd6b114e,0.0,18.072908,120.661646,Burgos,Ilocos Norte,Region I,Barangay 14,,,,,,
,,67f3652456b1e991bd6b114f,0.0,18.160151,120.605288,San Nicolas,Ilocos Norte,Region I,Barangay 8,,,,,,
,,67f3652456b1e991bd6b1150,0.0,18.065412,120.530324,Paoay,Ilocos Norte,Region I,Barangay 26,,,,,,
,,67f3652456b1e991bd6b1151,0.0,17.969766,120.80582,Burgos,Ilocos Norte,Region I,Barangay 45,,,,,,
,,67f3652456b1e991bd6b1152,0.0,18.065732,120.526617,Paoay,Ilocos Norte,Region I,Barangay 37,,,,,,
,,67f3652456b1e991bd6b1153,0.0,18.200095,120.599099,Laoag,Ilocos Norte,Region I,Barangay 43,,,,,,
,,67f3652456b1e991bd6b1154,0.0,18.565332,120.664686,Banna,Ilocos Norte,Region I,Barangay 15,,,,,,
,,67f3652456b1e991bd6b1155,0.0,18.055863,120.51971,Paoay,Ilocos Norte,Region I,Barangay 42,,,,,,
,,67f3652456b1e991bd6b1156,0.0,18.046859,120.564938,Batac,Ilocos Norte,Region I,Barangay 15,,,,,,
,,67f3652456b1e991bd6b1157,0.0,18.206128,120.602653,Laoag,Ilocos Norte,Region I,Barangay 31,,,,,,
,,67f3652456b1e991bd6b1158,0.0,18.148281,120.535728,Solsona,Ilocos Norte,Region I,Barangay 20,,,,,,
,,67f3652456b1e991bd6b1159,0.0,18.143229,120.834352,Currimao,Ilocos Norte,Region I,Barangay 3,,,,,,
,,67f3652456b1e991bd6b115a,0.0,18.312458,120.779295,Carasi,Ilocos Norte,Region I,Barangay 6,,,,,,
,,67f3652456b1e991bd6b115b,0.0,18.061603,120.557919,Batac,Ilocos Norte,Region I,Barangay 44,,,,,,
,,67f3652456b1e991bd6b115c,0.0,18.055457,120.531018,Paoay,Ilocos Norte,Region I,Barangay 48,,,,,,
,,67f3652456b1e991bd6b115d,0.0,18.199377,120.5515,Vintar,Ilocos Norte,Region I,Barangay 26,,,,,,
,,67f3652456b1e991bd6b115e,0.0,18.15501,120.603953,San Nicolas,Ilocos Norte,Region I,Barangay 38,,,,,,
,,67f3652456b1e991bd6b115f,0.0,18.198646,120.850828,Pasuquin,Ilocos Norte,Region I,Barangay 13,,,,,,
,,67f3652456b1e991bd6b1160,0.0,18.193071,120.593295,Laoag,Ilocos Norte,Region I,Barangay 35,,,,,,
,,67f3652456b1e991bd6b1161,0.0,18.056132,120.526427,Paoay,Ilocos Norte,Region I,Barangay 8,,,,,,
,,67f3652456b1e991bd6b1162,0.0,18.165152,120.59049,San Nicolas,Ilocos Norte,Region I,Barangay 23,,,,,,
,,6806e46e32d42f8322193310,0.0,18.1974502,120.5930884,City of Laoag ,Ilocos Norte,Region I (Ilocos Region),"Bgy. No. 10, San Jose ",Polandy Building,,,2900,2025-04-22 00:35:58.895000,2025-04-22 00:35:58.895000
,,6806e9292719cb896093e795,0.0,17.1950896,121.5997835,Mallig,Isabela,Cagayan Valley,San Pedro,25,,,3323,2025-04-22 00:56:09.128000,2025-04-22 00:56:09.128000
,,6806f8cccd2a9d929dd8c0d6,0.0,17.2305553,121.6088538,Mallig,Isabela,Region II (Cagayan Valley),San Pedro,HOTEL CARESTO,,,3323,2025-04-22 02:02:52.863000,2025-04-22 02:02:52.863000
,,6806f95fcd2a9d929dd8c0e6,0.0,17.205153,121.607147,Mallig,Isabela,Region II (Cagayan Valley),Casili,Mallig Plains Colleges,,,3323,2025-04-22 02:05:19.508000,2025-04-22 02:07:52.791000
